{
"type": "FeatureCollection",
"name": "merged_sea_buffer_200km",
"crs": { "type": "name", "properties": { "name": "urn:ogc:def:crs:OGC:1.3:CRS84" } },
"features": [
{ "type": "Feature", "properties": { }, "geometry": { "type": "Polygon", "coordinates": [ [ [ -0.693614703773975, 5.303178428038566 ], [ -0.692597445712006, 5.303725115345184 ], [ 0.296930343156301, 5.773109884592678 ], [ 0.29812225877042, 5.773601038207945 ], [ 0.299407427397746, 5.773702212831003 ], [ 0.92649439884132, 5.790331285340415 ], [ 0.931170549413318, 5.790675211331034 ], [ 0.935793922857948, 5.791455651751884 ], [ 0.940323861840797, 5.79266574351315 ], [ 0.944720530677742, 5.794294845227976 ], [ 0.948945265644695, 5.796328630791407 ], [ 0.952960914981273, 5.798749215362259 ], [ 0.956732165598468, 5.801535312640051 ], [ 0.960225853617274, 5.804662422053913 ], [ 0.963411256007456, 5.808103044217365 ], [ 0.966260360761813, 5.811826922754283 ], [ 0.96874811323006, 5.815801310369468 ], [ 1.098218597188688, 6.045979190766401 ], [ 1.098845805226488, 6.046978920220971 ], [ 1.099915938492061, 6.047476578435939 ], [ 1.428270250437317, 6.181436089424198 ], [ 1.429555866326929, 6.181880356293956 ], [ 1.430882266131569, 6.182181761047469 ], [ 2.305652524506343, 6.331262668082881 ], [ 2.308317558246498, 6.331570723968339 ], [ 3.323311071050254, 6.393929853156268 ], [ 3.328098264126867, 6.394456350028877 ], [ 3.332812596028749, 6.395440977485605 ], [ 3.33741032828482, 6.396874600382717 ], [ 3.341848804208301, 6.398743917901577 ], [ 3.346086844655498, 6.401031586950535 ], [ 3.350085130076284, 6.403716383070088 ], [ 3.35380656531171, 6.406773397348461 ], [ 3.357216623754228, 6.410174267520673 ], [ 3.360283667677506, 6.413887441107017 ], [ 3.362979241763858, 6.417878468149601 ], [ 3.365278337106048, 6.422110320831011 ], [ 3.367159623234091, 6.426543737009768 ], [ 3.368605646014375, 6.43113758448531 ], [ 3.369602989585043, 6.435849242612942 ], [ 3.370142400825221, 6.440634997728242 ], [ 3.370218875203319, 6.445450448712224 ], [ 3.369868254677419, 6.449797724377476 ], [ 3.369861507901798, 6.450011826626183 ], [ 3.3701711506935, 6.451175953807446 ], [ 3.401976469444945, 6.550965141963986 ], [ 3.402405653030134, 6.552111230059721 ], [ 3.403405023945361, 6.552817611151458 ], [ 3.480174730684751, 6.60154141863543 ], [ 3.48119397982598, 6.60212014575563 ], [ 3.481868836172223, 6.601161833278668 ], [ 3.506382151650567, 6.562444342526661 ], [ 3.509207039870657, 6.558432618170238 ], [ 3.512411524725407, 6.554717082867809 ], [ 3.515964748402611, 6.551333515627798 ], [ 3.519832494885052, 6.548314498748831 ], [ 3.523977519436047, 6.545689104066203 ], [ 3.528359907250257, 6.543482613002595 ], [ 3.532937457816112, 6.541716273118835 ], [ 3.537666091288604, 6.540407093509021 ], [ 3.542500272959252, 6.53956768101025 ], [ 3.54739345173578, 6.539206118804195 ], [ 3.552298508409137, 6.539325888579541 ], [ 3.557168209391222, 6.539925837004815 ], [ 3.561955661554058, 6.541000186834474 ], [ 3.566614763790446, 6.542538592541301 ], [ 3.772519505161798, 6.621929723724141 ], [ 3.773696581042803, 6.622316846004237 ], [ 3.774914557935597, 6.622089022436535 ], [ 3.856712112347928, 6.602489221489829 ], [ 3.857729367939859, 6.602191318454492 ], [ 3.856741689399304, 6.601806550656571 ], [ 3.615673537753375, 6.521443587522314 ], [ 3.611121241248053, 6.519674592631041 ], [ 3.606763248346073, 6.517469905745334 ], [ 3.602641139087233, 6.514850562000063 ], [ 3.598794242922243, 6.511841552812058 ], [ 3.595259263466558, 6.50847158743455 ], [ 3.59206992830757, 6.504772819039347 ], [ 3.58925666720637, 6.500780537940252 ], [ 3.586846321764396, 6.496532834884709 ], [ 3.584861889325071, 6.492070237626221 ], [ 3.583322303553882, 6.48743532424506 ], [ 3.582242253790413, 6.482672316906609 ], [ 3.581632044895907, 6.47782665993332 ], [ 3.581497498933567, 6.47294458621596 ], [ 3.581839899619679, 6.46807267610104 ], [ 3.582655980075553, 6.463257412963136 ], [ 3.583937953997125, 6.458544739702436 ], [ 3.58567358994486, 6.453979620398996 ], [ 3.587846328045118, 6.449605611306024 ], [ 3.590435437989541, 6.445464445275374 ], [ 3.593416216824969, 6.441595633580296 ], [ 3.596760224646752, 6.438036088934478 ], [ 3.600435555946677, 6.434819773304211 ], [ 3.604407144026577, 6.431977373873921 ], [ 3.608637095573143, 6.429536010256716 ], [ 3.613085052201771, 6.427518975743487 ], [ 3.617708575519881, 6.425945515059321 ], [ 3.622463552035802, 6.424830640747686 ], [ 3.627304614049952, 6.424184989934268 ], [ 4.404313348083759, 6.358974744359711 ], [ 4.405508709358815, 6.358815445739288 ], [ 4.406553722808794, 6.358213605629528 ], [ 4.746673394607328, 6.139594124744909 ], [ 4.747763897225157, 6.138806565416259 ], [ 4.748659495549815, 6.137802897494816 ], [ 5.017789072761698, 5.801132715697936 ], [ 5.021156936025873, 5.797332585818416 ], [ 5.024892856172956, 5.79389363383823 ], [ 5.028958303178944, 5.790851327031066 ], [ 5.033311348478838, 5.788237041911864 ], [ 5.037907097392536, 5.786077740638384 ], [ 5.042698152141451, 5.784395692939802 ], [ 5.047635100680571, 5.78320824644017 ], [ 5.052667026304447, 5.782527647745498 ], [ 5.057742032771342, 5.782360916139662 ], [ 5.062807779529724, 5.78270977119174 ], [ 5.067812021527099, 5.783570615021427 ], [ 5.072703148033936, 5.784934569405388 ], [ 5.077430714925551, 5.786787567341899 ], [ 5.081945964932347, 5.789110498129404 ], [ 5.289324190913171, 5.909491531817488 ], [ 5.289586428224984, 5.90962717338412 ], [ 5.289343712653148, 5.909459077597447 ], [ 5.130899314475604, 5.810757698626488 ], [ 5.126885192553339, 5.807976148031615 ], [ 5.123161577282935, 5.8048162607177 ], [ 5.119763992249752, 5.801308182260633 ], [ 5.116724850684802, 5.797485380007465 ], [ 5.114073146239944, 5.793384323795248 ], [ 5.111834176386148, 5.789044138025902 ], [ 5.11002930107361, 5.78450622841631 ], [ 5.108675738956131, 5.779813886984491 ], [ 5.107786403123795, 5.775011879040312 ], [ 5.107369777911063, 5.770146016120875 ], [ 5.107429837955547, 5.765262718944816 ], [ 5.107966010279656, 5.760408574554968 ], [ 5.122882895964493, 5.667304260194279 ], [ 5.123866403812661, 5.662616109595508 ], [ 5.125294026389254, 5.658043589775652 ], [ 5.127152660378245, 5.653628669230597 ], [ 5.129425246460925, 5.649411869944293 ], [ 5.132090925893444, 5.645431895461057 ], [ 5.135125231957079, 5.641725275648294 ], [ 5.138500314523984, 5.638326031410122 ], [ 5.142185195677299, 5.635265362429307 ], [ 5.146146054039399, 5.632571360803555 ], [ 5.150346535198619, 5.630268753204504 ], [ 5.154748085385222, 5.628378673926012 ], [ 5.159310305333994, 5.626918470904786 ], [ 5.163991321085565, 5.625901546493775 ], [ 5.168748168323093, 5.625337234449779 ], [ 5.247976396681825, 5.619769499566574 ], [ 5.252763291492654, 5.619662924877606 ], [ 5.257538431760898, 5.620014713895171 ], [ 5.262258028074873, 5.620821640612647 ], [ 5.266878800376962, 5.62207630527961 ], [ 5.271358374854196, 5.623767202259673 ], [ 5.275655672518333, 5.625878825540488 ], [ 5.27973128591201, 5.62839181092834 ], [ 5.283547840486474, 5.631283113623391 ], [ 5.287070337336968, 5.634526219547121 ], [ 5.290266474152761, 5.638091388484074 ], [ 5.293106941438642, 5.641945926808194 ], [ 5.29556569129144, 5.646054487292797 ], [ 5.3369969842741, 5.723473330431699 ], [ 5.337504257506873, 5.724318768449221 ], [ 5.337457304615554, 5.723333940037703 ], [ 5.334093581171794, 5.688654426346763 ], [ 5.333860092402864, 5.683747916925455 ], [ 5.334109170059061, 5.678842174165405 ], [ 5.33483841020707, 5.673984545061292 ], [ 5.336040774701784, 5.669221912246509 ], [ 5.337704659113839, 5.664600241512898 ], [ 5.339814004727917, 5.660164138179232 ], [ 5.342348453530882, 5.655956416590088 ], [ 5.34528354469389, 5.652017686900019 ], [ 5.348590950652195, 5.648385963131123 ], [ 5.352238750504116, 5.645096296286757 ], [ 5.356191738090541, 5.642180436062369 ], [ 5.360411761781559, 5.639666524418367 ], [ 5.364858092690839, 5.637578823972476 ], [ 5.369487817763988, 5.635937483832938 ], [ 5.374256253947057, 5.63475834513262 ], [ 5.379117379437921, 5.634052788140828 ], [ 5.384024277858367, 5.633827622428463 ], [ 5.388929591060043, 5.634085021146523 ], [ 5.393785976194085, 5.63482250005229 ], [ 5.398546562633078, 5.636032941485597 ], [ 5.403165404335452, 5.637704663063797 ], [ 5.446277468255054, 5.655749893509964 ], [ 5.447423618146865, 5.656163150051595 ], [ 5.448305239673872, 5.655322207707084 ], [ 5.508754660206942, 5.591549651238291 ], [ 5.509486836134483, 5.590695621965309 ], [ 5.508365771727652, 5.590602551112124 ], [ 5.258361424670337, 5.582373123256405 ], [ 5.253624092916833, 5.581991179574447 ], [ 5.248944426993027, 5.581161167550118 ], [ 5.244364708977971, 5.579890586572175 ], [ 5.239926317893643, 5.578190916692018 ], [ 5.235669355834025, 5.576077514898246 ], [ 5.231632285631557, 5.573569476362 ], [ 5.227851583334788, 5.570689461906801 ], [ 5.224361408637157, 5.567463493261732 ], [ 5.221193296234702, 5.563920717947891 ], [ 5.218375870901331, 5.560093145922465 ], [ 5.215934588856053, 5.556015360359889 ], [ 5.213891507758987, 5.551724205183277 ], [ 5.212265087414287, 5.547258452169362 ], [ 5.21117974259088, 5.543771114635168 ], [ 5.20996818759652, 5.539092128622169 ], [ 5.209214063297087, 5.534318024292014 ], [ 5.208924416463996, 5.529493412356711 ], [ 5.209101953647119, 5.524663375486996 ], [ 5.209745015883937, 5.519873047045879 ], [ 5.2108475942014, 5.515167189348492 ], [ 5.212399385765641, 5.510589775389132 ], [ 5.214385890154847, 5.506183577943958 ], [ 5.2167885448557, 5.5019897698889 ], [ 5.219584898717263, 5.498047539467537 ], [ 5.222748821741496, 5.494393724103986 ], [ 5.226250749250068, 5.491062466182584 ], [ 5.23005795814588, 5.488084894010857 ], [ 5.23413487268784, 5.485488830946957 ], [ 5.238443396921624, 5.48329853540957 ], [ 5.367128319488129, 5.42552797447204 ], [ 5.371828899552351, 5.423696700318587 ], [ 5.376690083980149, 5.422348403643447 ], [ 5.381662387823591, 5.421496809577145 ], [ 5.386695194982739, 5.421150587012757 ], [ 5.39173727345767, 5.421313260359988 ], [ 5.396737296870108, 5.421983173668063 ], [ 5.401644366945792, 5.423153507482658 ], [ 5.406408531638919, 5.424812348265262 ], [ 5.41098129362434, 5.426942809668325 ], [ 5.415316103981292, 5.429523204431638 ], [ 5.419368836043111, 5.432527265150127 ], [ 5.423098234589379, 5.435924411665713 ], [ 5.423630806898209, 5.436461133307366 ], [ 5.424697295109509, 5.437038038752365 ], [ 5.638795195035481, 5.539656821944665 ], [ 5.639352751116299, 5.539891120983569 ], [ 5.63885059367522, 5.539554070946853 ], [ 5.572452150323575, 5.499572212072485 ], [ 5.56839965609931, 5.496854053988024 ], [ 5.56463141853444, 5.493753815535174 ], [ 5.561183327970721, 5.490301024740148 ], [ 5.558088225529924, 5.486528567491777 ], [ 5.555375590320639, 5.482472374321923 ], [ 5.553071258666356, 5.478171078187397 ], [ 5.55119717802903, 5.473665646512782 ], [ 5.549771197971856, 5.468998990998781 ], [ 5.548806900152227, 5.464215558912414 ], [ 5.548313468964097, 5.459360909751825 ], [ 5.548295604061792, 5.454481281317704 ], [ 5.54875347559845, 5.449623149324259 ], [ 5.54968272260541, 5.4448327847442 ], [ 5.55107449452798, 5.440155813103773 ], [ 5.552915535521994, 5.435636779925295 ], [ 5.577378333629205, 5.38308706524597 ], [ 5.577810017611518, 5.382028027253015 ], [ 5.576690869214345, 5.381792614007403 ], [ 5.388626133284253, 5.351693241996499 ], [ 5.383882109211396, 5.350695976925826 ], [ 5.379256957717552, 5.34924398667654 ], [ 5.374794155785529, 5.347350920132397 ], [ 5.370535654292636, 5.345034572347616 ], [ 5.36652148366738, 5.342316717271208 ], [ 5.362789377598586, 5.339222903069239 ], [ 5.35937441833418, 5.33578221196897 ], [ 5.356308706903808, 5.332026986882412 ], [ 5.353621061365282, 5.327992527379049 ], [ 5.351336745911361, 5.323716757865616 ], [ 5.349477233383279, 5.319239871092094 ], [ 5.348060003423448, 5.314603950335008 ], [ 5.347098378164705, 5.309852573809539 ], [ 5.346601397000658, 5.305030405029041 ], [ 5.346573731614288, 5.300182772962616 ], [ 5.347015642063568, 5.295355245937333 ], [ 5.357364058084542, 5.221805205779775 ], [ 5.358263607945483, 5.217075462231619 ], [ 5.359613888911267, 5.212454163139687 ], [ 5.361402381358263, 5.207984156568027 ], [ 5.363612502624891, 5.203706887816773 ], [ 5.366223760763819, 5.199662015146894 ], [ 5.369211944540554, 5.195887042074129 ], [ 5.37254934791675, 5.192416969641426 ], [ 5.376205026936871, 5.189283971893982 ], [ 5.38014508663639, 5.186517097565814 ], [ 5.384332995311343, 5.184142000743808 ], [ 5.388729923235378, 5.182180703006469 ], [ 5.393295102683759, 5.180651389242806 ], [ 5.39798620592623, 5.179568239044486 ], [ 5.402759737684043, 5.178941295234567 ], [ 5.407571438412334, 5.178776370751786 ], [ 5.412376694668672, 5.179074994753782 ], [ 5.417130952762908, 5.179834398438947 ], [ 5.421790131852995, 5.181047540718379 ], [ 5.449643514133033, 5.189751722966649 ], [ 5.450838211348775, 5.190059380373283 ], [ 5.451728336421194, 5.18920519545617 ], [ 5.495013214557634, 5.143219903694495 ], [ 5.495746631574948, 5.142359229173731 ], [ 5.49463858323864, 5.142133640972866 ], [ 5.444026461540337, 5.134410606050364 ], [ 5.439316532749328, 5.133458330463309 ], [ 5.434719767041902, 5.132058329377201 ], [ 5.430278620620538, 5.130223533346556 ], [ 5.426034112371926, 5.127970888736872 ], [ 5.422025445012301, 5.125321201206246 ], [ 5.418289643007109, 5.122298943542169 ], [ 5.414861210609218, 5.118932029628336 ], [ 5.411771813174084, 5.115251556629134 ], [ 5.409049984695255, 5.111291517773023 ], [ 5.406720864261465, 5.10708848838757 ], [ 5.404805963869417, 5.10268128808595 ], [ 5.403322969736755, 5.098110622224988 ], [ 5.402285578950341, 5.093418705946288 ], [ 5.401703372958541, 5.088648874272823 ], [ 5.401581729075981, 5.083845181862197 ], [ 5.401921770818114, 5.079051996113274 ], [ 5.402720357524316, 5.074313587384307 ], [ 5.403970113365352, 5.069673720107341 ], [ 5.472310610741423, 4.857190117259058 ], [ 5.474089231348612, 4.852486078825796 ], [ 5.476331394531998, 4.847984504311806 ], [ 5.47901441725146, 4.84373093428972 ], [ 5.482111156472789, 4.839768400373019 ], [ 5.883286206117788, 4.376483292738265 ], [ 5.886733135032699, 4.37288229840554 ], [ 5.890521493966808, 4.369642419439417 ], [ 5.894613628936952, 4.366795858265843 ], [ 5.898968866610971, 4.364370907971184 ], [ 5.909832063922202, 4.35901346087115 ], [ 5.91444906767043, 4.357018529593593 ], [ 5.919243131192706, 4.355497533420782 ], [ 5.924165745326941, 4.354465862689026 ], [ 5.929167100160136, 4.353933956451232 ], [ 5.934196589034463, 4.353907196848413 ], [ 5.939203320615275, 4.354385854650013 ], [ 5.944136633839639, 4.355365086514099 ], [ 5.948946610534854, 4.356834983995154 ], [ 5.953584580519961, 4.358780673803569 ], [ 5.958003614079336, 4.361182468302363 ], [ 5.962158996825234, 4.364016064718303 ], [ 5.96600868214433, 4.367252791051694 ], [ 5.969513716650154, 4.370859896196586 ], [ 5.972638634336429, 4.374800881335777 ], [ 5.975351815443037, 4.379035869257374 ], [ 5.977625806403402, 4.383522007855936 ], [ 5.979437597635865, 4.388213903735354 ], [ 5.988229803903508, 4.414906409698594 ], [ 5.988632353200027, 4.415951271574301 ], [ 5.989258962201849, 4.415023293431118 ], [ 5.998266345382403, 4.400144579265448 ], [ 6.000964774407901, 4.396137818092172 ], [ 6.004037266732045, 4.392410158608877 ], [ 6.00745514290734, 4.38899639576479 ], [ 6.011186499583034, 4.385928394515755 ], [ 6.015196507299336, 4.383234792388395 ], [ 6.019447735594715, 4.380940732169941 ], [ 6.023900502391621, 4.37906762721888 ], [ 6.028513244399385, 4.377632961587056 ], [ 6.033242905076849, 4.376650126818963 ], [ 6.038045336533393, 4.376128296951554 ], [ 6.042875711616899, 4.376072342881386 ], [ 6.047688942342121, 4.376482786898395 ], [ 6.052440100753742, 4.377355797810703 ], [ 6.057084838295663, 4.378683226705969 ], [ 6.061579799772039, 4.380452683015468 ], [ 6.065883028036017, 4.3826476501709 ], [ 6.069954355628731, 4.385247639774364 ], [ 6.073755779712876, 4.388228382842428 ], [ 6.077251816801131, 4.391562056339167 ], [ 6.080409833968327, 4.395217542883668 ], [ 6.0832003534557, 4.3991607212078 ], [ 6.085597327824015, 4.403354784653073 ], [ 6.087578383087177, 4.407760584733604 ], [ 6.088316300905242, 4.409944031475535 ], [ 6.08868153042082, 4.410869247749739 ], [ 6.088788684695547, 4.40989096936411 ], [ 6.093564781697115, 4.330256858304814 ], [ 6.094119938422037, 4.325245986367675 ], [ 6.095176879895045, 4.320316492348787 ], [ 6.096724860388114, 4.315518493500026 ], [ 6.098748141870528, 4.310900770186255 ], [ 6.101226154014526, 4.306510269944388 ], [ 6.104133703330003, 4.302391630176492 ], [ 6.107441229302059, 4.298586724329588 ], [ 6.111115104927272, 4.295134236176083 ], [ 6.115117978593211, 4.292069266523025 ], [ 6.11940915382535, 4.289422976348704 ], [ 6.123945003040586, 4.287222269994763 ], [ 6.128679411100785, 4.285489521634746 ], [ 6.133564244156847, 4.284242347800017 ], [ 6.138549839016622, 4.283493428275758 ], [ 6.14358550806138, 4.28325037718794 ], [ 6.148620054577438, 4.283515665591917 ], [ 6.176212327456122, 4.286370038656238 ], [ 6.181064343902557, 4.28711421591115 ], [ 6.185820006060951, 4.288330579680109 ], [ 6.190433477217034, 4.290007406229036 ], [ 6.19486029114253, 4.292128533724554 ], [ 6.199057780676009, 4.294673518007324 ], [ 6.20298548896373, 4.297617829639909 ], [ 6.20660555939677, 4.300933090329965 ], [ 6.209883100486091, 4.304587346450028 ], [ 6.212786522158765, 4.308545377017602 ], [ 6.215287840234006, 4.312769033167158 ], [ 6.217362946144364, 4.317217605842073 ], [ 6.218991839302432, 4.321848218162577 ], [ 6.220158819873409, 4.326616238687929 ], [ 6.22085264009553, 4.331475711589651 ], [ 6.236223246186283, 4.496790798843765 ], [ 6.236361469183021, 4.497753519364995 ], [ 6.236653478990147, 4.496825798139972 ], [ 6.246326109780534, 4.459727719858362 ], [ 6.247779833760958, 4.45508884895423 ], [ 6.249677174243522, 4.450613076867797 ], [ 6.252000195716705, 4.446342712959229 ], [ 6.25472693871736, 4.442318124870387 ], [ 6.257831627412969, 4.438577356930534 ], [ 6.261284913259932, 4.435155770524256 ], [ 6.265054152434609, 4.432085709821183 ], [ 6.269103714414553, 4.429396196027379 ], [ 6.273395318792939, 4.427112653048613 ], [ 6.277888397142286, 4.425256667158822 ], [ 6.282540476506762, 4.423845782945611 ], [ 6.287307580897969, 4.422893337461711 ], [ 6.292144646998846, 4.422408334150157 ], [ 6.29700595014606, 4.422395357734968 ], [ 6.301845536564096, 4.422854530881867 ], [ 6.306617657765127, 4.423781513038729 ], [ 6.311277203008315, 4.425167541466703 ], [ 6.3157801257305, 4.426999514074168 ], [ 6.320083859917244, 4.429260113270467 ], [ 6.331490240453753, 4.435978391129981 ], [ 6.332422020086428, 4.436468258008611 ], [ 6.332052691126561, 4.435482469510989 ], [ 6.305730962149278, 4.374375988936308 ], [ 6.304042249635341, 4.369870375311767 ], [ 6.302794446205949, 4.365223301965028 ], [ 6.301999107670881, 4.360477805078188 ], [ 6.301663599597982, 4.355677832326037 ], [ 6.301791029101222, 4.350867835880083 ], [ 6.302380216065961, 4.346092360740482 ], [ 6.303425704077886, 4.341395632208269 ], [ 6.304917810954452, 4.336821146318327 ], [ 6.3068427184108, 4.332411267026003 ], [ 6.309182600029822, 4.328206833877844 ], [ 6.311915786351211, 4.324246783799757 ], [ 6.315016965550626, 4.320567790505188 ], [ 6.318457417850527, 4.317203924862734 ], [ 6.322205281491772, 4.314186339368502 ], [ 6.326225847802882, 4.311542979645281 ], [ 6.330481882634319, 4.309298325640323 ], [ 6.334933971181031, 4.307473164918465 ], [ 6.339540882999875, 4.306084400150127 ], [ 6.344259953841513, 4.305144892576996 ], [ 6.349047480760691, 4.304663342905083 ], [ 6.353859126845784, 4.304644210728163 ], [ 6.358650331819458, 4.305087673227828 ], [ 6.521468381753429, 4.328103721221333 ], [ 6.526201100029507, 4.329007197789873 ], [ 6.530824883194698, 4.330362011958648 ], [ 6.535296794997926, 4.332155582981711 ], [ 6.539575309459031, 4.334371255835887 ], [ 6.543620696477234, 4.336988455878599 ], [ 6.547395390763135, 4.339982879903115 ], [ 6.550864340668376, 4.343326721817075 ], [ 6.553995333673729, 4.346988930848663 ], [ 6.556759295513167, 4.350935499882741 ], [ 6.559130560156243, 4.35512978124945 ], [ 6.561087108141736, 4.359532827032892 ], [ 6.562610771049429, 4.364103750739796 ], [ 6.563687400211268, 4.368800106969736 ], [ 6.56430699809528, 4.373578285561285 ], [ 6.564463811142239, 4.378393916554097 ], [ 6.564156383192949, 4.383202282206438 ], [ 6.550601452449952, 4.503668123813524 ], [ 6.550546324789521, 4.504532030809623 ], [ 6.550885442545422, 4.503735555132351 ], [ 6.558308064632279, 4.48366338597719 ], [ 6.560256862326268, 4.479102669015534 ], [ 6.562647905573399, 4.474757457415763 ], [ 6.565457668467195, 4.470670504499827 ], [ 6.568658505242921, 4.466882022535822 ], [ 6.572218922289272, 4.463429287082231 ], [ 6.576103888019694, 4.460346270226961 ], [ 6.580275177554498, 4.457663306329837 ], [ 6.584691748822354, 4.455406793557354 ], [ 6.589310146380649, 4.453598934146348 ], [ 6.594084928981436, 4.452257515952176 ], [ 6.598969116676081, 4.451395737430795 ], [ 6.603914653059466, 4.451022077776768 ], [ 6.608872878105641, 4.451140213494936 ], [ 6.613795006942613, 4.451748982226627 ], [ 6.618632609855509, 4.452842394186308 ], [ 6.623338088795296, 4.454409691096168 ], [ 6.627865145704581, 4.456435452038759 ], [ 6.632169238052563, 4.458899745186189 ], [ 6.636208017097044, 4.461778323912974 ], [ 6.639941744561347, 4.465042865362969 ], [ 6.643333683626407, 4.468661249123069 ], [ 6.646350460390966, 4.47259787326175 ], [ 6.64896239224342, 4.476814004622911 ], [ 6.651143779914393, 4.481268159928394 ], [ 6.652873160336495, 4.485916513939448 ], [ 6.65413351782332, 4.490713330661174 ], [ 6.654912451489855, 4.495611413347244 ], [ 6.655202297267031, 4.500562568877207 ], [ 6.65500020330988, 4.505518081937316 ], [ 6.654308158057361, 4.510429194339298 ], [ 6.654291009808932, 4.510518547924783 ], [ 6.654130822210607, 4.511644649760265 ], [ 6.654304374740782, 4.511639968057328 ], [ 6.659168766696106, 4.511745568348728 ], [ 6.663999863379217, 4.512323465705522 ], [ 6.668751917279485, 4.513368187795606 ], [ 6.673379929372756, 4.514869841744121 ], [ 6.677840075234409, 4.516814207812883 ], [ 6.682090120029658, 4.519182874052547 ], [ 6.686089818451445, 4.521953410652435 ], [ 6.689801295818702, 4.525099582337022 ], [ 6.693189406726265, 4.528591596797847 ], [ 6.696222067850214, 4.532396386808327 ], [ 6.6988705617572, 4.536477923350025 ], [ 6.701109808840847, 4.540797556785276 ], [ 6.702452525325522, 4.543728568060441 ], [ 6.735526599847987, 4.606812848991704 ], [ 6.736135339910566, 4.607847514299382 ], [ 6.73788713592442, 4.608495142628641 ], [ 6.738785764544807, 4.608777306574765 ], [ 6.743202466603565, 4.610645671874531 ], [ 6.747419860048339, 4.61292857320862 ], [ 6.751399148155804, 4.615605009669102 ], [ 6.755103724585631, 4.618650360132478 ], [ 6.758499510130209, 4.622036609754766 ], [ 6.761555266216715, 4.625732607686177 ], [ 6.76424288227757, 4.629704353634579 ], [ 6.766537634345688, 4.633915310641611 ], [ 6.768418412495648, 4.638326741194146 ], [ 6.769867915038511, 4.642898063579129 ], [ 6.770872807683832, 4.647587225203619 ], [ 6.771423846204708, 4.652351089445778 ], [ 6.771515961477449, 4.657145832478073 ], [ 6.771148306113541, 4.661927346412236 ], [ 6.77032426225497, 4.666651645057365 ], [ 6.769051410461151, 4.671275268558492 ], [ 6.715964037113684, 4.83330728607709 ], [ 6.715668560617272, 4.834382629081533 ], [ 6.716762353748591, 4.834165176735037 ], [ 6.78408468126592, 4.817354233274912 ], [ 6.785274947506016, 4.816991225542044 ], [ 6.785580966233127, 4.815785049404374 ], [ 6.808774906181025, 4.699668123441787 ], [ 6.80994343867229, 4.695000174055576 ], [ 6.811555281464384, 4.69046617113664 ], [ 6.813595505527745, 4.686108109018376 ], [ 6.816045214127841, 4.681966352455036 ], [ 6.818881717848381, 4.678079262759812 ], [ 6.822078744742684, 4.674482842498988 ], [ 6.825606683666757, 4.671210402033011 ], [ 6.829432858540313, 4.668292250992998 ], [ 6.833521830995497, 4.66575541755028 ], [ 6.837835728610165, 4.663623398079092 ], [ 6.84233459568558, 4.661915939531101 ], [ 6.84697676331961, 4.6606488565374 ], [ 6.851719235347757, 4.659833884932005 ], [ 6.856518086577413, 4.65947857305353 ], [ 6.861328869626852, 4.659586211831812 ], [ 6.866107026600783, 4.660155804307029 ], [ 6.870808301789497, 4.661182074863631 ], [ 6.875389151569129, 4.662655518093551 ], [ 6.879807147706539, 4.664562486836134 ], [ 6.884021370333326, 4.666885318579337 ], [ 6.887992786949252, 4.669602499051464 ], [ 6.891684613944681, 4.672688861488245 ], [ 6.895062657293612, 4.676115819729617 ], [ 6.898095629261743, 4.679851632987248 ], [ 6.900462949573689, 4.683420728709597 ], [ 6.900591294736852, 4.683594209642925 ], [ 6.901220108770369, 4.683492746713211 ], [ 6.904797991673148, 4.682732508012792 ], [ 6.90977067895926, 4.68218693594791 ], [ 6.914772994106789, 4.682140991544069 ], [ 6.919754863405412, 4.682595134709676 ], [ 6.924666417809947, 4.683544819423007 ], [ 6.929458492134827, 4.684980539238381 ], [ 6.934083117202882, 4.686887922446695 ], [ 6.938494000021931, 4.689247875937774 ], [ 6.942646987182597, 4.692036776324446 ], [ 6.946500506838661, 4.69522670641518 ], [ 6.950015984845694, 4.698785734668158 ], [ 6.953158230892377, 4.702678234829436 ], [ 6.95589579075928, 4.706865242555552 ], [ 6.958201261178973, 4.711304845450785 ], [ 6.960051564145662, 4.715952602614719 ], [ 6.961428177928504, 4.720761989500417 ], [ 6.96231732247611, 4.72568486363012 ], [ 6.962710097356344, 4.730671946506601 ], [ 6.962711641746941, 4.730726025949922 ], [ 6.963476162571566, 4.729972965161692 ], [ 6.979281409679397, 4.712822927200135 ], [ 6.982850627658711, 4.709319155374163 ], [ 6.986752037078899, 4.706189500676214 ], [ 6.990946599291861, 4.703465279350053 ], [ 6.995392342276584, 4.701173750754091 ], [ 7.000044780623505, 4.699337844596245 ], [ 7.004857360668585, 4.697975931492548 ], [ 7.009781926322934, 4.697101639145368 ], [ 7.014769200936776, 4.696723715980621 ], [ 7.019769280376076, 4.696845943608451 ], [ 7.024732132377959, 4.697467098983327 ], [ 7.029608097188214, 4.6985809666422 ], [ 7.034348384471381, 4.700176400898246 ], [ 7.038905561521172, 4.702237437367886 ], [ 7.043234027886053, 4.704743452715089 ], [ 7.047290471660753, 4.707669371014534 ], [ 7.051034302877902, 4.710985914668675 ], [ 7.054428059663165, 4.714659897367982 ], [ 7.057437783089751, 4.718654556162895 ], [ 7.060033356981409, 4.722929919324694 ], [ 7.062188809263726, 4.727443206314348 ], [ 7.063882571848331, 4.732149255857151 ], [ 7.071431268264876, 4.756952113807751 ], [ 7.071810781877581, 4.758010042524579 ], [ 7.072568210398455, 4.757179653586855 ], [ 7.202750706589094, 4.599603640198311 ], [ 7.20606492900409, 4.595971602885634 ], [ 7.209719860895324, 4.592682645888776 ], [ 7.213680157952621, 4.589768574428653 ], [ 7.217907522891181, 4.587257568468292 ], [ 7.22236107579804, 4.585173910203953 ], [ 7.226997749453345, 4.583537749248868 ], [ 7.231772705803548, 4.582364907780304 ], [ 7.23663976955912, 4.581666727534273 ], [ 7.24155187472372, 4.581449960127468 ], [ 7.246461519736798, 4.581716701767068 ], [ 7.251321226828222, 4.582464372979765 ], [ 7.25608400114285, 4.58368574355607 ], [ 7.26070378519516, 4.585369002468644 ], [ 7.265135904259238, 4.587497872088553 ], [ 7.269337498387052, 4.590051765594921 ], [ 7.273267936877264, 4.593005986055785 ], [ 7.27688921118656, 4.596331965254995 ], [ 7.280166302483883, 4.599997539955605 ], [ 7.281042688015231, 4.601080597519216 ], [ 7.282219296104724, 4.600986830316231 ], [ 7.453798597746033, 4.578899549941559 ], [ 7.458598986182453, 4.578515425832336 ], [ 7.463414063042818, 4.57859489469779 ], [ 7.468199161207944, 4.579137219344024 ], [ 7.472909891656378, 4.580137368889846 ], [ 7.477502555239695, 4.581586065435803 ], [ 7.481934548058189, 4.58346987013073 ], [ 7.486164756676456, 4.585771307837412 ], [ 7.490153939512689, 4.588469029240912 ], [ 7.493865090863686, 4.591538008895748 ], [ 7.497263784188704, 4.594949777374747 ], [ 7.500318491467687, 4.598672685366025 ], [ 7.503000875671329, 4.602672197268227 ], [ 7.505286053629871, 4.606911211560441 ], [ 7.507152826862127, 4.611350404974918 ], [ 7.508583878223454, 4.61594859727984 ], [ 7.509565932548455, 4.620663133288246 ], [ 7.52032134077751, 4.688521270111563 ], [ 7.520575623499933, 4.689728857386215 ], [ 7.521551749694792, 4.690483909954264 ], [ 7.550033042019415, 4.710306888493869 ], [ 7.550974083778188, 4.710895782833521 ], [ 7.550951567348022, 4.709785895836861 ], [ 7.542157164046651, 4.582816698267129 ], [ 7.542058872738224, 4.577905333651528 ], [ 7.542442999908285, 4.573008027260673 ], [ 7.543305837782608, 4.568172050175191 ], [ 7.544639057848441, 4.563444081496704 ], [ 7.54642979124519, 4.558869757779426 ], [ 7.548660752980656, 4.554493232524892 ], [ 7.551310408773813, 4.550356749991813 ], [ 7.554353182913727, 4.546500237434831 ], [ 7.557759705128205, 4.542960919708073 ], [ 7.561497094079348, 4.539772959953534 ], [ 7.565529274749514, 4.536967129842528 ], [ 7.569817326654186, 4.534570512553197 ], [ 7.574319859520604, 4.532606241351068 ], [ 7.578993412805939, 4.531093276296013 ], [ 7.694418965500252, 4.499900280599721 ], [ 7.698777097158596, 4.498929042099672 ], [ 7.70320449748503, 4.498350473067561 ], [ 7.70766585952788, 4.498169187386788 ], [ 7.712125605502791, 4.498386630746536 ], [ 8.272626757168855, 4.550880927144036 ], [ 8.277346966059374, 4.551551295375936 ], [ 8.281981869179726, 4.552668183285022 ], [ 8.286489326425421, 4.55422143623117 ], [ 8.290828356417917, 4.556196932184267 ], [ 8.29495950910346, 4.558576710120382 ], [ 8.298845224429277, 4.561339133321705 ], [ 8.302450173836046, 4.564459086095567 ], [ 8.305741581461854, 4.567908202123953 ], [ 8.308689522137252, 4.571655122367409 ], [ 8.311267193462093, 4.57566578017849 ], [ 8.339823382677951, 4.625133692413934 ], [ 8.342108529870426, 4.629594771924302 ], [ 8.343935551996589, 4.634262225002761 ], [ 8.345286088852077, 4.639089147240696 ], [ 8.346146568552729, 4.644027031683843 ], [ 8.346508343921847, 4.64902625629086 ], [ 8.34636777938786, 4.654036582597687 ], [ 8.345726287519081, 4.659007660576496 ], [ 8.344590314828467, 4.663889534615764 ], [ 8.342971276990983, 4.668633145536771 ], [ 8.340885444124616, 4.673190823601607 ], [ 8.176036015943616, 4.990345150530558 ], [ 8.175655673613184, 4.991174587679827 ], [ 8.176313568075448, 4.990542289372508 ], [ 8.326987189233083, 4.830686156210996 ], [ 8.330551012944639, 4.827261322577679 ], [ 8.334435568566084, 4.82420509083142 ], [ 8.338602895715107, 4.821547326865985 ], [ 8.343012270729282, 4.819314002696207 ], [ 8.347620604622996, 4.817526942656086 ], [ 8.352382864158606, 4.81620361012855 ], [ 8.3572525119171, 4.815356936891022 ], [ 8.362181961067792, 4.814995196744398 ], [ 8.367123040393027, 4.815121924660399 ], [ 8.372027465023566, 4.815735882237361 ], [ 8.376847308284614, 4.816831069802062 ], [ 8.381535470041509, 4.818396785039305 ], [ 8.386046136968359, 4.820417727576333 ], [ 8.390335230241813, 4.822874148500064 ], [ 8.39436083628506, 4.825742043346032 ], [ 8.420901680933369, 4.846702504968932 ], [ 8.421857177321822, 4.847382215407637 ], [ 8.422296538215532, 4.846295044016407 ], [ 8.443278468427902, 4.785813453233817 ], [ 8.44515809626307, 4.781162972969007 ], [ 8.447494212060491, 4.776724219712387 ], [ 8.450263305181162, 4.772541865019014 ], [ 8.453437507507919, 4.768658000052138 ], [ 8.456984873909825, 4.765111711978284 ], [ 8.460869703737533, 4.761938690594514 ], [ 8.465052900114175, 4.759170869146774 ], [ 8.469492363405813, 4.756836102954125 ], [ 8.474143414911602, 4.75495788907317 ], [ 8.478959246509669, 4.753555129823984 ], [ 8.483891391733433, 4.752641942557411 ], [ 8.488890213537493, 4.752227517578227 ], [ 8.493905403844215, 4.752316025654034 ], [ 8.498886489843565, 4.752906576040708 ], [ 8.503783341950815, 4.753993225446837 ], [ 8.508546678310033, 4.755565037846925 ], [ 8.513128560766038, 4.757606194541419 ], [ 8.517482877313372, 4.760096153355887 ], [ 8.521565806166921, 4.763009855377196 ], [ 8.525336256783794, 4.766317977146091 ], [ 8.584810431123469, 4.824029493325737 ], [ 8.585607106998728, 4.824729029072483 ], [ 8.585398274479548, 4.823689590911679 ], [ 8.577064182908298, 4.79078476323906 ], [ 8.576089219792742, 4.785941158346342 ], [ 8.575597053430602, 4.781024977541548 ], [ 8.575592489543199, 4.776084224501334 ], [ 8.576075572694268, 4.771167142836097 ], [ 8.577041585854817, 4.766321745018879 ], [ 8.578481096462204, 4.761595343571194 ], [ 8.580380048523677, 4.757034089083482 ], [ 8.582719899865067, 4.752682519581147 ], [ 8.585477803184437, 4.748583125636372 ], [ 8.588626829142843, 4.744775935472126 ], [ 8.592136229313837, 4.741298124109605 ], [ 8.595971736424151, 4.738183650375538 ], [ 8.600095898953903, 4.735462925313787 ], [ 8.604468446829145, 4.733162515239004 ], [ 8.609046684635956, 4.731304882331851 ], [ 8.613785908516592, 4.729908165308735 ], [ 8.618639842676934, 4.728986002307678 ], [ 8.623561091242989, 4.728547397719749 ], [ 8.628501601054328, 4.728596634266363 ], [ 8.633413130875542, 4.729133231180978 ], [ 8.638247722444154, 4.73015194890349 ], [ 8.642958168755447, 4.731642840241539 ], [ 8.647498475011711, 4.733591347499107 ], [ 8.651824307734962, 4.735978444624047 ], [ 8.654363301291156, 4.737727034181294 ], [ 8.655106044291307, 4.738186365990374 ], [ 8.655813048292794, 4.737245941834439 ], [ 8.736263761541945, 4.618460807217722 ], [ 8.739127999764493, 4.614638591733263 ], [ 8.742343874943616, 4.61110711348224 ], [ 8.745882041328402, 4.607898598180932 ], [ 8.749710212171498, 4.605042324419331 ], [ 8.753793454354623, 4.602564356485904 ], [ 8.758094507162935, 4.600487306523754 ], [ 8.762574122299359, 4.598830128188549 ], [ 8.767191422036166, 4.597607943691178 ], [ 8.771904272235552, 4.596831905803382 ], [ 8.776669666835298, 4.596509096085636 ], [ 8.781444120290988, 4.596642460265942 ], [ 8.786184064393646, 4.59723078135925 ], [ 8.790846245841685, 4.598268690772783 ], [ 8.795388120939267, 4.59974671729593 ], [ 8.797508016247829, 4.600668534313551 ], [ 8.798607575496014, 4.601080635601146 ], [ 8.800709342016299, 4.601207874524869 ], [ 8.801386970777136, 4.601214965860223 ], [ 8.806292803934785, 4.601752868855089 ], [ 8.811121710420364, 4.602771790224037 ], [ 8.815826644054987, 4.604261803008004 ], [ 8.820361766479571, 4.606208390585433 ], [ 8.824682893740359, 4.608592588102137 ], [ 8.828747926756176, 4.611391167238572 ], [ 8.832517261473594, 4.614576862514433 ], [ 8.835954174713994, 4.618118636925733 ], [ 8.839025181953367, 4.621981984326407 ], [ 8.841700363549167, 4.626129265608411 ], [ 8.84395365623587, 4.630520075405093 ], [ 8.845763107049352, 4.635111635745125 ], [ 8.84702125913882, 4.63954283897073 ], [ 8.847044028693379, 4.639610260832638 ], [ 8.847897109824686, 4.63885723678915 ], [ 8.934814343431452, 4.554172739623908 ], [ 8.935646317762657, 4.55327577757799 ], [ 8.9352096761005, 4.552132945018744 ], [ 8.901607272707198, 4.475976403462497 ], [ 8.899928720262782, 4.471635552469267 ], [ 8.898661055607874, 4.467157433223782 ], [ 8.897815262055587, 4.462580845092763 ], [ 8.897398667739095, 4.457945440598055 ], [ 8.897414882119149, 4.453291381858851 ], [ 8.897863764710953, 4.448658992618637 ], [ 8.898741426301347, 4.444088408871802 ], [ 8.978314716495976, 4.113592544963279 ], [ 8.979769624188918, 4.108673807017574 ], [ 8.981720815121292, 4.103930011773372 ], [ 8.984147754382665, 4.099411084334797 ], [ 8.987024900146483, 4.095164583230684 ], [ 8.990321972479814, 4.091235199894551 ], [ 8.994004272018316, 4.087664288318741 ], [ 8.998033045152605, 4.084489429832773 ], [ 9.002365891882711, 4.081744037586316 ], [ 9.185666052455137, 3.97837928554147 ], [ 9.189901848699998, 3.976248770110729 ], [ 9.194320406057365, 3.974529055975108 ], [ 9.198881990975712, 3.973235607537282 ], [ 9.203545583738705, 3.97238005603704 ], [ 9.208269247331982, 3.971970094958223 ], [ 9.213010504558669, 3.97200941084563 ], [ 9.217726720012433, 3.97249765015404 ], [ 9.222375483473245, 3.97343042242744 ], [ 9.22691499127815, 3.974799339779877 ], [ 9.231304422237633, 3.976592092322906 ], [ 9.235504304717153, 3.978792558861353 ], [ 9.325139716789199, 4.031316763050842 ], [ 9.326116463439053, 4.03182739142878 ], [ 9.326034718154704, 4.030728258558367 ], [ 9.318931126908018, 3.973063812403897 ], [ 9.318567974594991, 3.968044529158692 ], [ 9.318711202721795, 3.963014164400373 ], [ 9.319359360382702, 3.958023675892755 ], [ 9.320505881718852, 3.953123617451899 ], [ 9.322139152430633, 3.948363626834253 ], [ 9.324242627430927, 3.943791922904514 ], [ 9.326794998447388, 3.939454817176913 ], [ 9.329770409875962, 3.935396244678022 ], [ 9.333138720699029, 3.931657318883456 ], [ 9.33686580981491, 3.928275915236991 ], [ 9.340913921685784, 3.925286287471041 ], [ 9.345242048802547, 3.922718720615205 ], [ 9.34980634709226, 3.9205992242079 ], [ 9.35456058006007, 3.918949268818858 ], [ 9.391026877466732, 3.908317035509051 ], [ 9.395806026530273, 3.907175106918484 ], [ 9.400674183696433, 3.906507789540412 ], [ 9.405584333731269, 3.906321528130329 ], [ 9.410489055846039, 3.906618121546298 ], [ 9.415340981673253, 3.907394705376106 ], [ 9.420093252736482, 3.908643779600921 ], [ 9.424699972995777, 3.910353281028268 ], [ 9.429116652098159, 3.912506699794809 ], [ 9.433300635052396, 3.915083238813756 ], [ 9.437211514178399, 3.918058014627038 ], [ 9.440811519352746, 3.921402297722438 ], [ 9.444065882781446, 3.925083789994797 ], [ 9.446943174777108, 3.929066936671635 ], [ 9.449415607297626, 3.933313269690722 ], [ 9.451459302314955, 3.937781779213331 ], [ 9.453054522422093, 3.942429309685235 ], [ 9.454185861451171, 3.947210976620394 ], [ 9.454842393261698, 3.952080600082148 ], [ 9.455017777262031, 3.956991150675506 ], [ 9.454710319644935, 3.961895203743244 ], [ 9.453922989745895, 3.966745397379335 ], [ 9.452663391366126, 3.971494889836344 ], [ 9.450943689337304, 3.976097811909285 ], [ 9.429688438451695, 4.025445540624852 ], [ 9.42930163787257, 4.026478411799857 ], [ 9.429866118243847, 4.02636409480001 ], [ 9.434779021978715, 4.025621046546735 ], [ 9.439741416640885, 4.025369286677788 ], [ 9.444704296114153, 4.02561130144713 ], [ 9.449618649494557, 4.026344700838506 ], [ 9.454435945097449, 4.027562242168043 ], [ 9.459108609732018, 4.02925190160935 ], [ 9.46359049851023, 4.031396992934797 ], [ 9.467837350550541, 4.033976332300306 ], [ 9.471807226076136, 4.036964447446355 ], [ 9.475460920591082, 4.040331829249212 ], [ 9.478762352044239, 4.044045223138213 ], [ 9.481678917157456, 4.048067957501195 ], [ 9.484181813399177, 4.05236030583491 ], [ 9.486246323423757, 4.056879879064008 ], [ 9.487852059167555, 4.061582044154245 ], [ 9.488983163191207, 4.066420364885908 ], [ 9.489628465279729, 4.071347060434581 ], [ 9.489781592753937, 4.076313477230562 ], [ 9.489441033403843, 4.081270569437071 ], [ 9.488610150422462, 4.086169383302285 ], [ 9.487297149192624, 4.090961540601999 ], [ 9.485514996254725, 4.095599716398657 ], [ 9.479024963959469, 4.110268364063847 ], [ 9.478672098491341, 4.111185587089982 ], [ 9.479408441211683, 4.110534732638897 ], [ 9.550557887700634, 4.041108032864027 ], [ 9.554180174517692, 4.037900523714663 ], [ 9.558095516326727, 4.035058134711257 ], [ 9.562267251313013, 4.032607480934717 ], [ 9.566656316890796, 4.030571509401959 ], [ 9.571221615470924, 4.028969284198514 ], [ 9.575920399283499, 4.02781580796947 ], [ 9.580708670652198, 4.02712188144025 ], [ 9.585541593972279, 4.026894002282598 ], [ 9.590373915534611, 4.027134304272788 ], [ 9.595160387264706, 4.027840537311731 ], [ 9.599856190408962, 4.029006088494069 ], [ 9.604417355200946, 4.030620044028977 ], [ 9.608801172578016, 4.032667291432874 ], [ 9.612966594093239, 4.035128661037137 ], [ 9.755825228771847, 4.129155974381773 ], [ 9.756625174246611, 4.129628131155274 ], [ 9.756074715991492, 4.128879906262144 ], [ 9.683628683182279, 4.039871727151987 ], [ 9.680750419572579, 4.035962075795277 ], [ 9.678264893411377, 4.031791711921475 ], [ 9.67619553801576, 4.027399953346078 ], [ 9.674561863082269, 4.02282820517392 ], [ 9.673379270751237, 4.018119569435564 ], [ 9.672658910396795, 4.013318438725232 ], [ 9.672407573511567, 4.008470077671426 ], [ 9.672627629677105, 4.003620196186075 ], [ 9.673317004223673, 3.998814518515601 ], [ 9.674469197790049, 3.994098352156837 ], [ 9.676073347598926, 3.989516160702017 ], [ 9.678114329870189, 3.985111144640033 ], [ 9.68057290240656, 3.98092483406611 ], [ 9.683425886007303, 3.976996697139801 ], [ 9.686646382999642, 3.973363767982731 ], [ 9.690204030827598, 3.970060297524232 ], [ 9.694065288307442, 3.967117430586654 ], [ 9.698193751850956, 3.964562912254791 ], [ 9.702550498675183, 3.962420826297709 ], [ 9.707094453762933, 3.960711368109142 ], [ 9.711782777114342, 3.959450654307135 ], [ 9.716571267638544, 3.958650570788019 ], [ 9.721414779877579, 3.958318660667247 ], [ 9.763202409465444, 3.957488984692962 ], [ 9.764227647160368, 3.957418798261453 ], [ 9.763352226212277, 3.956880582106111 ], [ 9.750047954740628, 3.949565075534149 ], [ 9.745853742906442, 3.946981937954768 ], [ 9.741934058868214, 3.943998636142264 ], [ 9.738326945531201, 3.94064412484582 ], [ 9.735067412112878, 3.936950961627269 ], [ 9.7321870943573, 3.932954990870251 ], [ 9.729713947491069, 3.928694995888789 ], [ 9.727671974900936, 3.924212322511754 ], [ 9.726080995166416, 3.919550477796582 ], [ 9.724956449708481, 3.914754707766956 ], [ 9.724309252921222, 3.909871558272767 ], [ 9.724145686241057, 3.904948423234484 ], [ 9.724467337181585, 3.900033084656473 ], [ 9.72527108392581, 3.895173248873735 ], [ 9.726549125625256, 3.890416083533061 ], [ 9.728289058111935, 3.885807759802481 ], [ 9.730473994288287, 3.881393004252137 ], [ 9.733082728026694, 3.877214664755862 ], [ 9.736089939987769, 3.873313294626637 ], [ 9.739466443359866, 3.869726759022152 ], [ 9.743179467134757, 3.866489867440537 ], [ 9.74719297417008, 3.863634035873122 ], [ 9.75092590741153, 3.861245761385771 ], [ 9.75189878503455, 3.860553514118593 ], [ 9.751742068265594, 3.859369817788149 ], [ 9.744703008594742, 3.820884523100457 ], [ 9.744431880395535, 3.819732757036229 ], [ 9.743328816291815, 3.820160921899558 ], [ 9.693520644868324, 3.842436607932872 ], [ 9.689049813103017, 3.844183696764225 ], [ 9.684432053935145, 3.84549402356539 ], [ 9.679709925845007, 3.846355512020707 ], [ 9.674926949204277, 3.846760222426496 ], [ 9.670127205180842, 3.846704424865452 ], [ 9.665354929475187, 3.846188633582541 ], [ 9.66065410463257, 3.845217602245582 ], [ 9.656068054688349, 3.843800280134197 ], [ 9.651639045882295, 3.841949729660903 ], [ 9.647407897121839, 3.83968300598449 ], [ 9.64341360378431, 3.8370209998252 ], [ 9.639692978325305, 3.83398824493037 ], [ 9.63628031100543, 3.830612691964978 ], [ 9.63320705386227, 3.826925450910974 ], [ 9.630501530840149, 3.822960504349532 ], [ 9.628188676749232, 3.818754394268656 ], [ 9.62628980745977, 3.814345885282632 ], [ 9.624822423449439, 3.809775607367172 ], [ 9.623800048514356, 3.805085681402891 ], [ 9.623232105130217, 3.800319330978224 ], [ 9.623123827612293, 3.795520484029484 ], [ 9.624247405309596, 3.751398450431329 ], [ 9.62422062003102, 3.750229183011604 ], [ 9.622797938578064, 3.749649084771659 ], [ 9.61845192612857, 3.747628950790474 ], [ 9.614319288515816, 3.745202003762885 ], [ 9.610437994373509, 3.742390541279766 ], [ 9.606843703115668, 3.739220393670127 ], [ 9.603569437315528, 3.735720686684804 ], [ 9.600645279310445, 3.73192357390344 ], [ 9.598098094820235, 3.727863941323277 ], [ 9.595951286118209, 3.723579086843836 ], [ 9.594224577022638, 3.719108377592234 ], [ 9.592933831684052, 3.714492888237463 ], [ 9.592090908833258, 3.70977502361661 ], [ 9.591703552829179, 3.704998129140155 ], [ 9.591775322507505, 3.700206092555741 ], [ 9.592305558483872, 3.695442940729224 ], [ 9.593289389211957, 3.690752435147566 ], [ 9.594717775740842, 3.686177669859905 ], [ 9.611074999231517, 3.641448038718467 ], [ 9.612946215002651, 3.637007253414724 ], [ 9.615236238938063, 3.632767228302615 ], [ 9.617923799442739, 3.62876734816569 ], [ 9.620983932280398, 3.625044767126684 ], [ 9.624388212461497, 3.62163406352997 ], [ 9.628105018277553, 3.618566918749916 ], [ 9.632099825029135, 3.615871822908654 ], [ 9.636335525719215, 3.613573810236772 ], [ 9.640772775732971, 3.611694226535128 ], [ 9.645370358302408, 3.610250530897783 ], [ 9.650085567361034, 3.609256133537812 ], [ 9.654874604232367, 3.60872027122239 ], [ 9.659692984467469, 3.608647921474233 ], [ 9.664495951052498, 3.609039756336335 ], [ 9.669238890148069, 3.609892136129489 ], [ 9.786372306481763, 3.63682750571574 ], [ 9.78760645990582, 3.637046105886887 ], [ 9.788826693378006, 3.636759835067087 ], [ 9.818391311160578, 3.628221452792597 ], [ 9.819439390815237, 3.627861194916333 ], [ 9.818474295585091, 3.627316357420674 ], [ 9.706510438752918, 3.571283093117207 ], [ 9.70231075813428, 3.568921747360414 ], [ 9.69835785092773, 3.56616715198212 ], [ 9.694688421095892, 3.563044884250021 ], [ 9.691336540426523, 3.559583935383019 ], [ 9.688333332165467, 3.555816441358812 ], [ 9.685706682027719, 3.551777384521435 ], [ 9.68348097926995, 3.547504268759399 ], [ 9.681676890228745, 3.543036771270524 ], [ 9.680311166427295, 3.538416374146915 ], [ 9.679396489032326, 3.533685979200949 ], [ 9.67894135110557, 3.528889509608704 ], [ 9.678949978743056, 3.524071502069734 ], [ 9.679422291834506, 3.519276693270069 ], [ 9.680353904807191, 3.51454960448829 ], [ 9.681736167347321, 3.509934128201724 ], [ 9.683556244720874, 3.505473120531256 ], [ 9.685797236948066, 3.501208003309026 ], [ 9.688438335724873, 3.497178379463944 ], [ 9.691455017634549, 3.49342166529628 ], [ 9.694819271855122, 3.489972743055775 ], [ 9.92857621686035, 3.272368925298246 ], [ 9.929400942804756, 3.271523848642732 ], [ 9.929632872843593, 3.270366033504586 ], [ 9.957835425477542, 3.083433728381173 ], [ 9.957957679240593, 3.082223596057746 ], [ 9.957723599428672, 3.081030041339934 ], [ 9.769100985478865, 2.319229254203058 ], [ 9.768224545537015, 2.314865136256116 ], [ 9.767739709656501, 2.310440364330304 ], [ 9.767650320389055, 2.305990006818222 ], [ 9.767957086186538, 2.301549334890238 ], [ 9.80959760434042, 1.936244830172958 ], [ 9.809675993705101, 1.934980393162492 ], [ 9.809006197726346, 1.933905070330586 ], [ 9.645865418334747, 1.699816413173457 ], [ 9.643259248399378, 1.695655216085598 ], [ 9.641073777378583, 1.691258467360313 ], [ 9.639330079929335, 1.68666856516729 ], [ 9.638044970653734, 1.681929770269239 ], [ 9.637230841954558, 1.677087779212121 ], [ 9.636895544534429, 1.67218928367001 ], [ 9.637042311690905, 1.667281520193862 ], [ 9.637669728137555, 1.662411814706001 ], [ 9.638771743651674, 1.657627126132784 ], [ 9.640337731417018, 1.65297359357624 ], [ 9.642352590498978, 1.64849609139133 ], [ 9.64479689146399, 1.644237796459263 ], [ 9.647647063738987, 1.640239771829666 ], [ 9.650875622904163, 1.636540570746595 ], [ 9.654451435727239, 1.633175864876783 ], [ 9.658340020383505, 1.630178100325141 ], [ 9.662503878966577, 1.627576184754601 ], [ 9.666902859083446, 1.625395208627403 ], [ 9.671494541046957, 1.623656203255933 ], [ 9.743311353578045, 1.600420099261794 ], [ 9.744272355899797, 1.600056286216649 ], [ 9.74327242610028, 1.599819588539703 ], [ 9.615682783817265, 1.576147079435989 ], [ 9.61068673597806, 1.574951734136045 ], [ 9.605839705587, 1.573250075890143 ], [ 9.601192856625799, 1.571060066956482 ], [ 9.596795240013503, 1.568404824495055 ], [ 9.592693275837831, 1.565312376548972 ], [ 9.588930263356923, 1.561815366187785 ], [ 9.585545923943711, 1.557950706935809 ], [ 9.582575981797525, 1.553759193122634 ], [ 9.374460445328193, 1.225508586930334 ], [ 9.371988259152888, 1.221138536646813 ], [ 9.369966812086618, 1.216542582368958 ], [ 9.368416487628568, 1.211767067942151 ], [ 9.367352918657712, 1.20686014782765 ], [ 9.366786829796824, 1.201871301531416 ], [ 9.366723929269501, 1.196850834671697 ], [ 9.367164851340604, 1.191849371716413 ], [ 9.368105149920583, 1.186917345505376 ], [ 9.369535343398141, 1.182104488704824 ], [ 9.371441010249175, 1.177459332322232 ], [ 9.373802934457915, 1.173028716338191 ], [ 9.376597299283867, 1.168857317389955 ], [ 9.379795927420735, 1.164987198269319 ], [ 9.383366565125582, 1.161457383777509 ], [ 9.387273207453255, 1.158303467214012 ], [ 9.391476461316474, 1.155557251467351 ], [ 9.565025324827616, 1.054221357285137 ], [ 9.569161700254707, 1.052058413027926 ], [ 9.573481752821671, 1.050290624762233 ], [ 9.577947832528142, 1.048933399066525 ], [ 9.582521016722149, 1.04799856439593 ], [ 9.587161449317703, 1.047494267995218 ], [ 9.591828688147446, 1.047424904894167 ], [ 9.596482057423083, 1.047791079604121 ], [ 9.601081002231865, 1.048589600849567 ], [ 9.605585441979622, 1.049813509380655 ], [ 9.627534070738699, 1.05689271471521 ], [ 9.632163000250957, 1.058643037141151 ], [ 9.636596229066061, 1.060842377791693 ], [ 9.640790328180376, 1.063469191383005 ], [ 9.644704211163832, 1.066497745000824 ], [ 9.648299536652742, 1.069898370186433 ], [ 9.651541083951253, 1.073637753576206 ], [ 9.67573249719586, 1.104507602491231 ], [ 9.676481500546966, 1.105377679819099 ], [ 9.677307367685691, 1.106175165897782 ], [ 9.698217918470228, 1.124583918586323 ], [ 9.699268154746584, 1.125412503219567 ], [ 9.700471312374784, 1.12599727706669 ], [ 9.71671243050948, 1.132835642781362 ], [ 9.71778289045737, 1.133228845077691 ], [ 9.718836781221627, 1.132793176851971 ], [ 9.846423996275785, 1.07296165631311 ], [ 9.847429384859556, 1.07243028232904 ], [ 9.846942832150702, 1.071402454047256 ], [ 9.792828085248503, 0.969907416427562 ], [ 9.792247637502269, 0.968937397896809 ], [ 9.791678493742793, 0.969914091767571 ], [ 9.764786506054028, 1.021793798340396 ], [ 9.762240155748016, 1.026152474047617 ], [ 9.759267294785442, 1.030232186230951 ], [ 9.75589822488859, 1.033991351275448 ], [ 9.752167286250844, 1.037391652833107 ], [ 9.748112507514607, 1.040398432373049 ], [ 9.743775218153655, 1.042981042448341 ], [ 9.73919962721083, 1.045113159078732 ], [ 9.734432372684944, 1.046773050065234 ], [ 9.729522046159834, 1.047943796501672 ], [ 9.724518697520962, 1.048613465225403 ], [ 9.719473324807877, 1.048775230449435 ], [ 9.714437354402335, 1.048427443336183 ], [ 9.709462116850423, 1.047573648803707 ], [ 9.704598323661521, 1.04622254939314 ], [ 9.617961263643345, 1.017371814175271 ], [ 9.613380963036795, 1.015592038425631 ], [ 9.608997485042307, 1.013371255672362 ], [ 9.604853168368196, 1.010730915794607 ], [ 9.600988041734817, 1.007696521048812 ], [ 9.597439437249077, 1.00429737975002 ], [ 9.594241629824738, 1.000566323191587 ], [ 9.591425506131236, 0.996539388537504 ], [ 9.589018266268528, 0.992255470750155 ], [ 9.587043161049447, 0.987755946915466 ], [ 9.585519267427008, 0.983084276593958 ], [ 9.584461304235816, 0.97828558205779 ], [ 9.583879490027213, 0.973406212468177 ], [ 9.583779444371345, 0.968493296202646 ], [ 9.584162133579404, 0.963594285656076 ], [ 9.62745309882831, 0.62486912078955 ], [ 9.627542460652432, 0.623743907664091 ], [ 9.626416718784727, 0.623826341641322 ], [ 9.562358795509049, 0.631612865178078 ], [ 9.561049986871572, 0.631843375832462 ], [ 9.559773187741403, 0.632212020909089 ], [ 8.632710118013769, 0.954376340606217 ], [ 8.631684028085461, 0.954784907690305 ], [ 8.630802011194916, 0.955449613495899 ], [ 8.056198533411576, 1.429974549741516 ], [ 8.055260841621614, 1.430833546114279 ], [ 8.054627674866236, 1.431936379066846 ], [ 7.769633870566111, 1.993199059755667 ], [ 7.769147180341635, 1.994283647236505 ], [ 7.769102697459066, 1.995471594479155 ], [ 7.777507484342595, 2.786939781203943 ], [ 7.777325245719989, 2.791768562785548 ], [ 7.776677728711039, 2.796557201861689 ], [ 7.775570981213312, 2.801260971887391 ], [ 7.774015340400054, 2.805835939006239 ], [ 7.772025336169569, 2.810239372398613 ], [ 7.769619555433981, 2.814430143393393 ], [ 7.766820468514935, 2.818369109615391 ], [ 7.763654219267703, 2.822019480580488 ], [ 7.760150380894006, 2.825347161323802 ], [ 7.756341679724246, 2.828321070851325 ], [ 7.75226368954911, 2.830913432440671 ], [ 7.712299175524802, 2.853684959293655 ], [ 7.707657145983009, 2.856019235545847 ], [ 7.70279793563874, 2.857859169979074 ], [ 7.697774018684451, 2.859184893300446 ], [ 7.69263964796504, 2.859982089138415 ], [ 7.687450269106066, 2.860242148644041 ], [ 7.682261921761235, 2.859962263457204 ], [ 6.208346563494362, 2.703325702710306 ], [ 6.206957621313116, 2.703256196861695 ], [ 6.2055695914937, 2.703342014495561 ], [ 5.393313077263538, 2.799324953421499 ], [ 5.392180340957432, 2.799512155682602 ], [ 5.391101231004689, 2.799904147947339 ], [ 4.660366829907432, 3.104209992494391 ], [ 4.659309996735296, 3.104709605745287 ], [ 4.658365189618847, 3.105397972847131 ], [ 3.987579407627862, 3.64414234319098 ], [ 3.986507543605266, 3.645110722036783 ], [ 3.985555089972058, 3.646196761699287 ], [ 3.650895849672913, 4.075711582008588 ], [ 3.650281262503937, 4.076573609608854 ], [ 3.649821502816227, 4.077527250003042 ], [ 3.34505920170026, 4.785102944009783 ], [ 3.342950584172411, 4.789415941345379 ], [ 3.340438042588655, 4.793506827396775 ], [ 3.337544740787327, 4.797337887117276 ], [ 3.334297352943941, 4.800873800873329 ], [ 3.330725817654342, 4.804081970066306 ], [ 3.326863061922248, 4.806932817668297 ], [ 3.322744697595794, 4.809400060901179 ], [ 3.318408693051738, 4.811460953545046 ], [ 3.313895023154155, 4.813096495642108 ], [ 3.309245300714744, 4.814291608662729 ], [ 3.304502392852443, 4.815035274518699 ], [ 3.29971002578921, 4.815320637142132 ], [ 3.294912381725501, 4.815145065693514 ], [ 2.343436688521993, 4.734451844303663 ], [ 2.336234242731186, 4.733307253333767 ], [ 1.571431344620021, 4.553755946911942 ], [ 1.570184181402978, 4.553529384668656 ], [ 1.568920452726499, 4.553430711611125 ], [ 0.947709602672235, 4.536633428145918 ], [ 0.946586482290329, 4.536653783752151 ], [ 0.94548528908292, 4.536875565768846 ], [ 0.15939767040213, 4.732495129059702 ], [ 0.158367252985566, 4.732799425795107 ], [ 0.157449431474236, 4.733357959794846 ], [ -0.692688499136504, 5.302488626657437 ], [ -0.693614703773975, 5.303178428038566 ] ], [ [ 8.579556665424272, 3.463372441377311 ], [ 8.578427418203098, 3.462965915351199 ], [ 8.479589268579334, 3.432770245862308 ], [ 8.475124079471669, 3.431170879958793 ], [ 8.470830524592413, 3.429155620283383 ], [ 8.46674723886839, 3.426742600856087 ], [ 8.462910965150126, 3.423953534879979 ], [ 8.459356223586674, 3.42081351935811 ], [ 8.456115001001082, 3.417350809261787 ], [ 8.453216463061652, 3.413596563282339 ], [ 8.450686691838913, 3.409584563454184 ], [ 8.448548451109925, 3.40535091117212 ], [ 8.446820981521761, 3.400933702338197 ], [ 8.445519827457337, 3.396372684561301 ], [ 8.44465669716157, 3.3917088994941 ], [ 8.444239357386424, 3.386984313525721 ], [ 8.44427156350295, 3.382241440153326 ], [ 8.448338479079933, 3.307332136262868 ], [ 8.44886270413992, 3.30233441095854 ], [ 8.449885932823426, 3.297414545798568 ], [ 8.451397829673455, 3.292622235494977 ], [ 8.453383123279895, 3.288005886350114 ], [ 8.455821760533393, 3.283612127312924 ], [ 8.458689109178369, 3.279485338987943 ], [ 8.461956206619195, 3.275667205354452 ], [ 8.465590052466389, 3.272196292723764 ], [ 8.469553941867881, 3.269107660187546 ], [ 8.473807836258407, 3.266432505491963 ], [ 8.478308767782176, 3.264197849914609 ], [ 8.483011273303788, 3.262426265327228 ], [ 8.647138924907383, 3.209848820939031 ], [ 8.651878884383347, 3.208583139515892 ], [ 8.65672006644953, 3.207788078825933 ], [ 8.661615861821378, 3.207471293448021 ], [ 8.666519135415658, 3.207635833286006 ], [ 8.671382680151314, 3.208280114205266 ], [ 8.676159671443475, 3.209397933284222 ], [ 8.680804118014924, 3.210978528534001 ], [ 8.685271304684759, 3.213006682511266 ], [ 8.689518222871232, 3.215462868826688 ], [ 8.693503984664007, 3.218323440138492 ], [ 8.69719021647931, 3.221560855821178 ], [ 8.700541428507986, 3.225143947117465 ], [ 8.703525356399524, 3.229038217220674 ], [ 8.706113271892464, 3.233206173398474 ], [ 8.859463156833318, 3.509579287985892 ], [ 8.861683778053672, 3.514105203525668 ], [ 8.924260560517274, 3.659791774856364 ], [ 8.926004401482626, 3.664487377768582 ], [ 8.927269680823104, 3.66933389571575 ], [ 8.928043700363268, 3.674282689687326 ], [ 8.928318692145794, 3.679284094244169 ], [ 8.928091896389668, 3.684287915954289 ], [ 8.927365589186985, 3.689243937127468 ], [ 8.926147059660382, 3.694102419793328 ], [ 8.924448536810377, 3.698814604864999 ], [ 8.922287066786746, 3.703333201478839 ], [ 8.91968434181562, 3.707612861599262 ], [ 8.91666648249919, 3.711610635125602 ], [ 8.91326377567281, 3.715286400933617 ], [ 8.90951037045034, 3.718603269525768 ], [ 8.905443935508174, 3.721527953249317 ], [ 8.901105281047402, 3.724031100366785 ], [ 8.896537949228057, 3.726087589626098 ], [ 8.891787777185778, 3.727676782374135 ], [ 8.886902437016397, 3.728782729683505 ], [ 8.741909798734968, 3.754047684878798 ], [ 8.737120428196054, 3.754645764400012 ], [ 8.732295705915082, 3.754779271644033 ], [ 8.727480590138876, 3.75444696254928 ], [ 8.722719949597897, 3.753651933674152 ], [ 8.718058145405594, 3.752401593342345 ], [ 8.713538617687911, 3.750707592609812 ], [ 8.709203480794825, 3.748585716696638 ], [ 8.705093130865862, 3.746055737895502 ], [ 8.701245869406456, 3.743141231327372 ], [ 8.69769754638272, 3.739869355261269 ], [ 8.694481226160441, 3.736270598045162 ], [ 8.691626879401143, 3.732378494006162 ], [ 8.689161103786235, 3.728229310967341 ], [ 8.687106876171642, 3.723861712292995 ], [ 8.580068311436456, 3.464458112162906 ], [ 8.579556665424272, 3.463372441377311 ] ], [ [ 8.644810504169, 4.68562767884309 ], [ 8.644358347099349, 4.686980767999488 ], [ 8.642383201068206, 4.69140937413348 ], [ 8.639988353977992, 4.695625825431534 ], [ 8.637196330566978, 4.699590464053995 ], [ 8.634033391215969, 4.703266000585741 ], [ 8.63052928495626, 4.706617864761846 ], [ 8.626716969665079, 4.709614530618257 ], [ 8.622632302080195, 4.712227813009306 ], [ 8.618313700549336, 4.714433132703143 ], [ 8.613801783686341, 4.716209747561741 ], [ 8.609138988332727, 4.717540947631108 ], [ 8.604369170417904, 4.718414212306792 ], [ 8.599537192472157, 4.718821328096439 ], [ 8.594688501672046, 4.718758465871819 ], [ 8.589868702386909, 4.718226216883687 ], [ 8.585123127246895, 4.717229587200783 ], [ 8.58049641076683, 4.715777950625237 ], [ 8.57603206953622, 4.713884960527261 ], [ 8.57177209292389, 4.711568421428352 ], [ 8.567756548146914, 4.708850121540837 ], [ 8.564023203418333, 4.705755627838801 ], [ 8.560607172718164, 4.702314045587878 ], [ 8.557540585528807, 4.698557744595619 ], [ 8.554852284641145, 4.69452205475722 ], [ 8.552567554873621, 4.69024493376013 ], [ 8.550707885255839, 4.685766610072959 ], [ 8.549290766913471, 4.681129204576554 ], [ 8.525015833512548, 4.585286425133478 ], [ 8.524051642076625, 4.580514126836612 ], [ 8.523556170962312, 4.575670677184324 ], [ 8.523534118126857, 4.570802000790085 ], [ 8.523985692670804, 4.565954261462251 ], [ 8.524906612855336, 4.561173424488133 ], [ 8.526288146700859, 4.556504820800408 ], [ 8.528117194781881, 4.551992717158349 ], [ 8.530376414433119, 4.547679896419338 ], [ 8.533044384189152, 4.543607251880434 ], [ 8.536095806898446, 4.539813399536368 ], [ 8.539501749585845, 4.536334311930468 ], [ 8.543229917789207, 4.533202977070252 ], [ 8.547244961768989, 4.530449085641784 ], [ 8.551508811687352, 4.528098749488583 ], [ 8.555981038578691, 4.526174254024374 ], [ 8.560619237688936, 4.524693846927293 ], [ 8.565379430548893, 4.52367156511908 ], [ 8.57021648196921, 4.523117101669813 ], [ 8.639492093270496, 4.518578354605523 ], [ 8.6443965227162, 4.518498144361056 ], [ 8.649285211472963, 4.518898873834241 ], [ 8.654111111070302, 4.519776686426771 ], [ 8.658827777317128, 4.521123134118755 ], [ 8.663389817278086, 4.522925258771997 ], [ 8.667753326132649, 4.525165716838408 ], [ 8.671876309712692, 4.527822946273343 ], [ 8.675719088652045, 4.530871374047535 ], [ 8.67924468025851, 4.534281662260519 ], [ 8.682419154433264, 4.538020990486954 ], [ 8.685211960212243, 4.542053371638594 ], [ 8.687596219786936, 4.54633999830203 ], [ 8.689548987174932, 4.550839616219095 ], [ 8.69105146905078, 4.555508921315568 ], [ 8.692089205611923, 4.560302976457185 ], [ 8.692652209739032, 4.565175643922142 ], [ 8.692735063111495, 4.570080029427979 ], [ 8.692336968353034, 4.574968933439563 ], [ 8.691461756705607, 4.579795305414805 ], [ 8.690117851157755, 4.584512696616481 ], [ 8.688318185382213, 4.589075707132308 ], [ 8.645873466309375, 4.682923215051098 ], [ 8.644810504169, 4.68562767884309 ] ], [ [ 7.13933838451752, 4.592496283496536 ], [ 7.13659129095966, 4.596506544985399 ], [ 7.133467767679243, 4.600231101675984 ], [ 7.129997336619353, 4.603634750965091 ], [ 7.126212798517819, 4.606685323302002 ], [ 7.122149922891433, 4.609353986238607 ], [ 7.117847109960789, 4.611615516938944 ], [ 7.113345027711053, 4.613448540572535 ], [ 7.108686227518989, 4.614835732338339 ], [ 7.103914741979125, 4.615763981209902 ], [ 7.099075668730212, 4.616224513854071 ], [ 7.094214744215428, 4.616212977552044 ], [ 7.089377911404931, 4.615729481339041 ], [ 7.084610885566422, 4.614778594973764 ], [ 7.079958722187836, 4.613369305747366 ], [ 7.075465391135941, 4.611514933540187 ], [ 7.071173361075655, 4.609233004929057 ], [ 7.067123198077976, 4.606545087535066 ], [ 7.063353182210237, 4.60347658617745 ], [ 7.059898945732512, 4.600056502760245 ], [ 7.05679313631973, 4.596317162161134 ], [ 7.054065108492564, 4.592293906713254 ], [ 7.051740646173531, 4.588024762167552 ], [ 7.049841718990558, 4.583550078292858 ], [ 7.048386274631294, 4.578912147510517 ], [ 7.047388069210769, 4.574154805168082 ], [ 7.046856537255626, 4.569323015230042 ], [ 7.046796702533808, 4.564462445301448 ], [ 7.048318178395391, 4.522588788104562 ], [ 7.048745469903708, 4.5176356869538 ], [ 7.049662526872588, 4.512749502802686 ], [ 7.051060282987399, 4.507978542009903 ], [ 7.052924919590032, 4.503369971799644 ], [ 7.055238002294523, 4.498969353951552 ], [ 7.057976663235207, 4.494820194362584 ], [ 7.061113827145657, 4.49096351293398 ], [ 7.064618479033311, 4.48743743803558 ], [ 7.06845597080348, 4.484276829556718 ], [ 7.072588363801344, 4.481512934270359 ], [ 7.076974803885475, 4.479173076917636 ], [ 7.081571925324765, 4.477280390066837 ], [ 7.086334279525734, 4.475853585417533 ], [ 7.091214784351672, 4.474906768810812 ], [ 7.096165189591498, 4.474449300774479 ], [ 7.101136553976579, 4.474485703981927 ], [ 7.106079729029556, 4.475015618539555 ], [ 7.110945844961705, 4.476033805544798 ], [ 7.115686793815092, 4.477530198879565 ], [ 7.120255705073027, 4.479490004727061 ], [ 7.124607409036787, 4.48189384782813 ], [ 7.142174145156182, 4.492771050766511 ], [ 7.1462080881125, 4.495551142864617 ], [ 7.149950592538151, 4.498712672316127 ], [ 7.153365727983694, 4.502225286405005 ], [ 7.156420706952444, 4.506055261776893 ], [ 7.159086199681523, 4.510165828205015 ], [ 7.16133661572645, 4.514517521607993 ], [ 7.163150349645861, 4.519068562930411 ], [ 7.164509988427644, 4.523775259248621 ], [ 7.16540247866506, 4.528592423250905 ], [ 7.165819251877831, 4.533473807064732 ], [ 7.165756306775073, 4.53837254626608 ], [ 7.165214247670254, 4.543241609808042 ], [ 7.1641982786794, 4.548034251549129 ], [ 7.162718153758234, 4.552704459046288 ], [ 7.160788083057923, 4.557207395303952 ], [ 7.158426596498499, 4.561499829238032 ], [ 7.13933838451752, 4.592496283496536 ] ], [ [ 6.923409424941327, 4.630684874867462 ], [ 6.921258666829051, 4.635069880052398 ], [ 6.918690348276376, 4.639224127365861 ], [ 6.915728975183379, 4.643107978590291 ], [ 6.912402803824201, 4.646684375522794 ], [ 6.908743571236633, 4.649919193570152 ], [ 6.904786192399604, 4.652781567352464 ], [ 6.900568427087986, 4.655244185208637 ], [ 6.896130519583457, 4.657283549793667 ], [ 6.891514814679167, 4.658880202281199 ], [ 6.886765353642135, 4.660018908032105 ], [ 6.881927453988551, 4.660688801957503 ], [ 6.877047277081603, 4.660883492189227 ], [ 6.872171387677644, 4.660601121068555 ], [ 6.867346309623333, 4.659844382871263 ], [ 6.862618081943128, 4.658620498099899 ], [ 6.85803181955276, 4.656941144588537 ], [ 6.853631282790191, 4.654822346077419 ], [ 6.84945845987144, 4.652284319320631 ], [ 6.845553166255291, 4.649351281185676 ], [ 6.84195266473963, 4.646051217585509 ], [ 6.83869130991426, 4.642415616447805 ], [ 6.835800220362734, 4.638479167269359 ], [ 6.833306981740885, 4.634279430122352 ], [ 6.831235383565192, 4.629856477270704 ], [ 6.829605192222437, 4.625252510816066 ], [ 6.828431962366505, 4.620511460021718 ], [ 6.827726888501905, 4.615678562156576 ], [ 6.827496698170146, 4.610799930858703 ], [ 6.827743587758144, 4.605922116136846 ], [ 6.828465201541154, 4.601091660208302 ], [ 6.862467334799288, 4.430865161434312 ], [ 6.863727590596911, 4.425897049747681 ], [ 6.865489833054344, 4.421084059001015 ], [ 6.867735544261107, 4.416476764829585 ], [ 6.870441125943925, 4.412123581377917 ], [ 6.873578147440949, 4.408070252556629 ], [ 6.877113644455463, 4.404359371358498 ], [ 6.881010465449695, 4.401029932284842 ], [ 6.885227662038806, 4.398116921585399 ], [ 6.889720919282711, 4.395650949617519 ], [ 6.894443021354181, 4.393657929187897 ], [ 6.8993443476899, 4.392158803256875 ], [ 6.943525059359849, 4.381086881854716 ], [ 6.948263189746135, 4.380140162170817 ], [ 6.953070576790488, 4.379655200808314 ], [ 6.957902326886447, 4.379636526560988 ], [ 6.9627133189141, 4.380084313817611 ], [ 6.967458625601983, 4.380994380933414 ], [ 6.972093933078755, 4.382358229280231 ], [ 6.976575954696647, 4.384163122610618 ], [ 6.980862835262227, 4.386392205994833 ], [ 6.984914541899573, 4.389024663219977 ], [ 6.988693237895816, 4.392035911181423 ], [ 6.992163636037875, 4.395397829451237 ], [ 6.995293328140807, 4.399079022879758 ], [ 6.998053087690432, 4.403045114778035 ], [ 7.00041714277407, 4.407259067943277 ], [ 7.002363416750585, 4.411681530529401 ], [ 7.003873734412291, 4.416271203532794 ], [ 7.004933991713454, 4.420985226461531 ], [ 7.005534287480405, 4.425779577586502 ], [ 7.005669015873283, 4.4306094850367 ], [ 7.005336918735964, 4.435429844899689 ], [ 7.004541097345307, 4.440195642422823 ], [ 7.003288983449991, 4.44486237238185 ], [ 7.00159226986941, 4.449386454691314 ], [ 6.923409424941327, 4.630684874867462 ] ], [ [ 6.824049944900389, 4.503410050638814 ], [ 6.822298667767835, 4.507984623302432 ], [ 6.820108176726649, 4.512365882898509 ], [ 6.817499494959091, 4.516511780399092 ], [ 6.814497659222321, 4.520382525657978 ], [ 6.811131479558758, 4.523940969295629 ], [ 6.80743326279242, 4.527152959239404 ], [ 6.803438502465012, 4.52998766849721 ], [ 6.799185538187546, 4.532417891018777 ], [ 6.794715187676905, 4.534420302805036 ], [ 6.790070355008837, 4.535975685759611 ], [ 6.785295618847173, 4.537069112134008 ], [ 6.780436804601232, 4.537690087796306 ], [ 6.775540544617615, 4.537832652948322 ], [ 6.770653830627445, 4.537495439324623 ], [ 6.765823562744413, 4.536681683324415 ], [ 6.761096099342125, 4.535399194950292 ], [ 6.756516812130791, 4.533660282851926 ], [ 6.752129650703383, 4.531481636194115 ], [ 6.747976720730528, 4.528884164482952 ], [ 6.744097879852405, 4.525892796887364 ], [ 6.740530355146053, 4.522536242982047 ], [ 6.737308385839437, 4.518846717208054 ], [ 6.734462894701335, 4.514859629695507 ], [ 6.732021191260839, 4.510613246415773 ], [ 6.730006709704845, 4.506148321924778 ], [ 6.72843878396904, 4.501507708222181 ], [ 6.727332462180944, 4.496735943480398 ], [ 6.726698362235881, 4.491878824590624 ], [ 6.720139550427615, 4.410895715779084 ], [ 6.719985066224564, 4.405926877335588 ], [ 6.720324760461616, 4.400967257524365 ], [ 6.721155275163292, 4.3960658836173 ], [ 6.722468400452295, 4.391271207108719 ], [ 6.724251155706521, 4.386630624758401 ], [ 6.726485917876242, 4.382190010060936 ], [ 6.729150595693044, 4.37799325977301 ], [ 6.732218848048377, 4.374081859981305 ], [ 6.735660344383013, 4.370494476000569 ], [ 6.739441064513369, 4.367266570155833 ], [ 6.743523634930828, 4.364430051227102 ], [ 6.74786769824965, 4.362012959021865 ], [ 6.752430312151369, 4.360039187193512 ], [ 6.757166373881987, 4.35852824704568 ], [ 6.762029066105709, 4.357495074657393 ], [ 6.766970319707799, 4.356949883235613 ], [ 6.771941288971649, 4.356898062154744 ], [ 6.804612029785359, 4.35818296268685 ], [ 6.809454749801002, 4.358609946211772 ], [ 6.814233112422677, 4.359505213063755 ], [ 6.818901944439689, 4.360860299657814 ], [ 6.823417108110913, 4.362662395410688 ], [ 6.827735918429795, 4.364894463848259 ], [ 6.831817546655627, 4.36753540366328 ], [ 6.835623406296255, 4.370560248200825 ], [ 6.839117517893227, 4.373940401485571 ], [ 6.842266849160831, 4.377643908559597 ], [ 6.845041627263441, 4.381635757574998 ], [ 6.847415620279, 4.385878210785411 ], [ 6.849366385187762, 4.390331161307393 ], [ 6.850875480041883, 4.394952512278889 ], [ 6.851928638310087, 4.399698574830371 ], [ 6.852515903749176, 4.404524481106349 ], [ 6.852631724527382, 4.409384608432645 ], [ 6.852275005709715, 4.41423301061951 ], [ 6.85144911960916, 4.419023852323155 ], [ 6.850161873905832, 4.42371184235938 ], [ 6.824049944900389, 4.503410050638814 ] ] ] } }
]
}
