{
"type": "FeatureCollection",
"name": "merged_sea_buffer_200km",
"crs": { "type": "name", "properties": { "name": "urn:ogc:def:crs:OGC:1.3:CRS84" } },
"features": [
{ "type": "Feature", "properties": { }, "geometry": { "type": "MultiPolygon", "coordinates": [ [ [ [ 40.171989940391626, -2.877600816088576 ], [ 40.171961650914575, -2.876389703829926 ], [ 40.174945380862368, -2.763860372014255 ], [ 40.175037000387917, -2.762654252349089 ], [ 40.175875669870067, -2.761782614646968 ], [ 40.388944097314827, -2.561143178720546 ], [ 40.389846413108025, -2.560372074481856 ], [ 40.391023535668936, -2.560219896907307 ], [ 40.633335889161351, -2.540707853191545 ], [ 40.638049834075701, -2.54010164707302 ], [ 40.642684924583783, -2.539050600691736 ], [ 40.647199280302104, -2.537564210782532 ], [ 40.651552111746973, -2.535655907628874 ], [ 40.655704088888079, -2.533342933713458 ], [ 40.659617696515191, -2.530646187923673 ], [ 40.663257573206998, -2.527590036719606 ], [ 40.799391296532093, -2.401784557794817 ], [ 40.802756469959931, -2.398360896890173 ], [ 40.805777798583144, -2.39463029110291 ], [ 40.808427430771843, -2.390627130419893 ], [ 40.81068094131966, -2.386388317331272 ], [ 40.812517556603623, -2.381952926650832 ], [ 40.813920346082391, -2.377361845311138 ], [ 40.814876378367728, -2.37265739545395 ], [ 40.815376840430446, -2.367882944290392 ], [ 40.81541711884185, -2.363082504327328 ], [ 40.814996842301916, -2.358300327645168 ], [ 40.814119885062034, -2.35358049796722 ], [ 40.812794331210881, -2.348966524281003 ], [ 40.811032400152513, -2.344500939757675 ], [ 40.808850333963811, -2.340224909666864 ], [ 40.774529300318768, -2.280265246459993 ], [ 40.774011908766987, -2.279252087303889 ], [ 40.775001669118133, -2.278691230868775 ], [ 40.882022795690268, -2.224622435630081 ], [ 40.882043896784573, -2.224613078997465 ], [ 40.886478493489378, -2.222376868303006 ], [ 40.890669363758668, -2.219711743054495 ], [ 40.894575158310246, -2.216643998748794 ], [ 40.898157340565596, -2.213203903329521 ], [ 40.90138056687163, -2.209425398547947 ], [ 40.904213035219314, -2.205345765076221 ], [ 40.906626799018682, -2.20100525467707 ], [ 40.908598042834257, -2.196446693059207 ], [ 40.910107317360371, -2.191715057336848 ], [ 40.911139731318059, -2.186857032262373 ], [ 40.911685098380069, -2.181920549610529 ], [ 40.911738037674375, -2.17695431525889 ], [ 40.911298026874661, -2.172007328630607 ], [ 40.910369407353862, -2.167128399240888 ], [ 40.861299710457274, -1.964656350189914 ], [ 40.861113549573844, -1.963683781757312 ], [ 40.861754426226703, -1.964438647537651 ], [ 40.876127009123529, -1.983139653074368 ], [ 40.879241470417583, -1.986811615038026 ], [ 40.88269468289414, -1.990166983483737 ], [ 40.88645462398317, -1.993174643175548 ], [ 40.890486426737553, -1.995806703274494 ], [ 40.894752703163668, -1.998038755977869 ], [ 40.899213890930355, -1.999850102859359 ], [ 40.903828620241043, -2.001223946811127 ], [ 40.908554097467039, -2.002147547807922 ], [ 40.9133465019844, -2.002612341048765 ], [ 40.918161392534344, -2.002614016380662 ], [ 40.922954119339074, -2.002152558267807 ], [ 40.927680238151169, -2.001232245935657 ], [ 40.93229592239706, -1.999861613688514 ], [ 40.936758369592702, -1.998053371768628 ], [ 40.941026198262499, -1.99582428849069 ], [ 40.945059831680901, -1.993195034744732 ], [ 40.948821864878063, -1.990189992309392 ], [ 40.952277411506167, -1.986837027753109 ], [ 40.955394427349979, -1.983167234019925 ], [ 40.958144007481472, -1.979214642096232 ], [ 40.96050065430299, -1.975015905432265 ], [ 40.962442513993381, -1.970609960044776 ], [ 40.963951579164359, -1.966037663452859 ], [ 40.965013855847864, -1.961341415795166 ], [ 40.970512740889092, -1.930110568521531 ], [ 40.970762194962965, -1.928998394017143 ], [ 40.971633112890046, -1.92826309718749 ], [ 41.005132823220869, -1.902541481344177 ], [ 41.006063415950116, -1.901897522671029 ], [ 41.006174199782379, -1.903023760897618 ], [ 41.008955434009465, -1.960237726325206 ], [ 41.009429610096305, -1.965092242807706 ], [ 41.010374535965298, -1.969877458408105 ], [ 41.011781219258431, -1.974547834769067 ], [ 41.013636273317331, -1.97905892639735 ], [ 41.015922044576996, -1.983367803627984 ], [ 41.018616780565431, -1.987433461163101 ], [ 41.021694836910328, -1.991217208297601 ], [ 41.025126921382991, -1.994683037118054 ], [ 41.028880372656921, -1.997797965170904 ], [ 41.032919471128309, -2.000532349338978 ], [ 41.037205778840573, -2.002860167939296 ], [ 41.041698505277978, -2.004759268357621 ], [ 41.046354895547317, -2.006211577863133 ], [ 41.051130637253564, -2.007203275597013 ], [ 41.05598028219741, -2.007724924098226 ], [ 41.060857678881653, -2.007771559114827 ], [ 41.06571641171049, -2.007342736846113 ], [ 41.070510242702149, -2.006442538166036 ], [ 41.075193551511184, -2.005079529787697 ], [ 41.079721769573105, -2.003266682738478 ], [ 41.08405180423977, -2.001021248921661 ], [ 41.217916202246847, -1.923092290767423 ], [ 41.219009840149226, -1.922527347161969 ], [ 41.220174702106185, -1.922925218699139 ], [ 41.270943037992147, -1.943173861245411 ], [ 41.275760874180605, -1.944816480584022 ], [ 41.280720751765244, -1.945960752481671 ], [ 41.285771267083007, -1.946594817821664 ], [ 41.290860077110658, -1.946712105215788 ], [ 41.295934441942514, -1.946311399109508 ], [ 41.30094177138141, -1.945396852379851 ], [ 41.305830169978137, -1.94397794329541 ], [ 41.310548974870535, -1.942069377284545 ], [ 41.315049280848228, -1.939690934529826 ], [ 41.319284447201206, -1.936867264968248 ], [ 41.323210581099346, -1.933627632821812 ], [ 41.32678699249324, -1.930005613306126 ], [ 41.646944614910751, -1.570911921018819 ], [ 41.650158527504843, -1.566911448833503 ], [ 41.652945480567766, -1.562602631769269 ], [ 41.655276118552273, -1.55803085547847 ], [ 41.828608667865055, -1.170005024489404 ], [ 41.829138692902895, -1.168960251940984 ], [ 41.829428820762317, -1.169110755392835 ], [ 41.833825038183463, -1.171127733456097 ], [ 41.838395573012484, -1.172710496703817 ], [ 41.843097654315862, -1.173844233683029 ], [ 41.847887280151959, -1.174518334915677 ], [ 41.852719629339902, -1.174726492181809 ], [ 41.857549480894924, -1.174466757551711 ], [ 41.862331637205045, -1.173741561614586 ], [ 41.867021346988999, -1.172557690733162 ], [ 41.871574724077476, -1.17092622353711 ], [ 41.875949158098585, -1.168862427249543 ], [ 41.880103713224543, -1.166385614816784 ], [ 41.883999511247914, -1.163518964178367 ], [ 41.88760009540281, -1.160289301368546 ], [ 41.890871771526236, -1.156726849479037 ], [ 41.893783923367081, -1.152864945832199 ], [ 41.896309299092167, -1.148739730011323 ], [ 41.898424266308055, -1.144389805667455 ], [ 41.900109033212338, -1.13985587926754 ], [ 41.901347833804785, -1.13518037916447 ], [ 41.952553253807245, -0.895665169961883 ], [ 41.952806229307605, -0.894713245807944 ], [ 41.953029609308501, -0.895672546372867 ], [ 41.954016181918753, -0.901104993010883 ], [ 41.955104115017278, -0.905797180486856 ], [ 41.956638488927076, -0.910362913554117 ], [ 41.958605064522168, -0.914759821804847 ], [ 41.960985591806612, -0.918947101540495 ], [ 41.963757979276068, -0.922885894433727 ], [ 41.966896498928911, -0.926539648137144 ], [ 41.97037202502441, -0.929874455492308 ], [ 41.974152304372133, -0.932859369191186 ], [ 41.97820225564444, -0.935466688969904 ], [ 41.982484294934316, -0.937672218669663 ], [ 41.986958684537356, -0.939455490779229 ], [ 41.991583901721192, -0.940799956375259 ], [ 41.996317024060119, -0.941693138697775 ], [ 42.001114127759038, -0.942126748935604 ], [ 42.005930695270145, -0.942096763147279 ], [ 42.010722028419735, -0.941603459603576 ], [ 42.015443663211208, -0.940651416205134 ], [ 42.020051782454914, -0.939249467999131 ], [ 42.024503622395564, -0.937410625189265 ], [ 42.028757869563648, -0.935151952399906 ], [ 42.032775044168119, -0.932494410314872 ], [ 42.036517866472352, -0.929462661160421 ], [ 42.039951602753383, -0.926084839837607 ], [ 43.466679331282684, 0.619530396993915 ], [ 43.468670553814484, 0.62146060177385 ], [ 44.549232303349221, 1.558350939511256 ], [ 44.550087571038908, 1.559029254347048 ], [ 44.550998883248205, 1.559630173554866 ], [ 46.041743452492504, 2.451549405661121 ], [ 46.045524755024879, 2.454051341588895 ], [ 46.049063863900763, 2.456885532936116 ], [ 46.052331676415989, 2.46002867365733 ], [ 47.945270888869921, 4.453700972949111 ], [ 47.948324717298881, 4.457234041951891 ], [ 47.95103560069785, 4.461036614219331 ], [ 49.032522617851861, 6.138615970974193 ], [ 49.034754389796049, 6.142439597742687 ], [ 49.036639178395376, 6.146445655606903 ], [ 49.038162206207836, 6.150602735586658 ], [ 49.246996275942919, 6.809576830827198 ], [ 49.247368126556282, 6.810594185522683 ], [ 49.247910591246637, 6.811531743795455 ], [ 49.739535249085769, 7.581824235934617 ], [ 49.742306163075064, 7.586761625789064 ], [ 49.744501120555803, 7.591980624214873 ], [ 49.746091977095787, 7.597414311579824 ], [ 49.823928900899034, 7.932611430274571 ], [ 49.824291794562619, 7.933867330112008 ], [ 49.825240889807425, 7.9347663264575 ], [ 50.082988787268235, 8.154154670677816 ], [ 50.086788219423148, 8.157747756406271 ], [ 50.090191596914082, 8.161718017280075 ], [ 50.093161692305088, 8.166022025077483 ], [ 50.09566601756444, 8.170612700926114 ], [ 50.439203150419694, 8.887116967953714 ], [ 50.439754651084115, 8.888141598069735 ], [ 50.440399288382906, 8.889110340868861 ], [ 50.822338283994775, 9.40874630095192 ], [ 50.825231971966964, 9.413152409750301 ], [ 50.827645700649576, 9.417838681047431 ], [ 50.829552641713981, 9.422753027453664 ], [ 50.830931599720145, 9.42784082654962 ], [ 50.83176724770162, 9.433045528008362 ], [ 50.92726010524148, 10.3266405063183 ], [ 50.927441338907883, 10.327801274176437 ], [ 50.928544692808295, 10.328204805876126 ], [ 50.992685914052373, 10.348200596235069 ], [ 50.997257842336865, 10.349874162751306 ], [ 51.001645331044912, 10.351984446135026 ], [ 51.005806780898837, 10.354511438069336 ], [ 51.009702735772485, 10.357431179281374 ], [ 51.013296256788216, 10.36071598670835 ], [ 51.016553272546993, 10.364334715970108 ], [ 51.019442902170944, 10.368253056659633 ], [ 51.021937748095532, 10.372433857651716 ], [ 51.024014155835168, 10.376837479345456 ], [ 51.025652438259513, 10.381422169500841 ], [ 51.02683706225384, 10.386144459105989 ], [ 51.027556795993796, 10.390959574521675 ], [ 51.027804815438188, 10.39582186199549 ], [ 51.027578769030029, 10.400685220520643 ], [ 51.026880799992455, 10.405503538935339 ], [ 51.025717526008094, 10.410231133118442 ], [ 51.024099976474552, 10.414823179136215 ], [ 51.022043487930944, 10.419236138233332 ], [ 51.019567558646933, 10.423428169638674 ], [ 51.016695663752962, 10.42735952727196 ], [ 51.013455032664552, 10.430992936589899 ], [ 51.010382931859304, 10.433826704400628 ], [ 51.010182427971237, 10.434030805027032 ], [ 51.010928562799947, 10.434930414828647 ], [ 51.14524585493772, 10.581626679487419 ], [ 51.148286693671913, 10.585282619649497 ], [ 51.150966473798213, 10.58921089880846 ], [ 51.153260956599617, 10.593375985524261 ], [ 51.155149388388608, 10.597740206423161 ], [ 51.156614688225126, 10.60226408695487 ], [ 51.157643602414311, 10.606906708441418 ], [ 51.158226824386716, 10.611626078188214 ], [ 51.158359078876572, 10.616379509309624 ], [ 51.158039169636801, 10.621124006833533 ], [ 51.115222985934771, 10.992133881704092 ], [ 51.11514335240755, 10.99334247798458 ], [ 51.115643011436113, 10.994445830749104 ], [ 51.166039378379047, 11.092603544866408 ], [ 51.168094670037043, 11.097152137417972 ], [ 51.169686211138185, 11.101882984585542 ], [ 51.170798141072687, 11.106748940793761 ], [ 51.171419378828055, 11.111701514029045 ], [ 51.171543733417707, 11.116691349090004 ], [ 51.171169965577604, 11.121668719440024 ], [ 51.170301800116285, 11.126584022760401 ], [ 51.168947888794989, 11.131388275265591 ], [ 51.167121724107979, 11.136033599854407 ], [ 51.164841504822157, 11.140473703232495 ], [ 51.162129954616042, 11.144664337251266 ], [ 51.159014095625437, 11.148563739865796 ], [ 51.155524979152489, 11.152133051317291 ], [ 51.151697376221883, 11.155336701392622 ], [ 51.147569431067843, 11.158142763901683 ], [ 51.143182281005188, 11.160523274839971 ], [ 51.087068621898915, 11.187436924211253 ], [ 51.086006979779697, 11.188012657724929 ], [ 51.085910581556419, 11.189216510062495 ], [ 51.0813506280209, 11.340134968163868 ], [ 51.081383459628618, 11.34148403655305 ], [ 51.081848159668873, 11.342750968795013 ], [ 51.270851281150783, 11.782300367644361 ], [ 51.272568276676367, 11.786904768444158 ], [ 51.273824994723249, 11.791655477876516 ], [ 51.274609296108736, 11.796506606786036 ], [ 51.274913604926802, 11.801411296022195 ], [ 51.274734981727079, 11.80632216907213 ], [ 51.274075151908242, 11.811191789690847 ], [ 51.272940489051649, 11.81597312010841 ], [ 51.271341953356171, 11.820619975388095 ], [ 51.269294985768887, 11.825087469546645 ], [ 51.266819358834312, 11.829332449127378 ], [ 51.263938985702829, 11.833313910038086 ], [ 51.260681689143254, 11.836993393627266 ], [ 51.257078932790677, 11.840335358172862 ], [ 51.253165517225618, 11.843307522195119 ], [ 51.24897924382018, 11.845881176277343 ], [ 51.244560549598255, 11.848031460382566 ], [ 51.239952116636843, 11.849737603987382 ], [ 50.812702717833524, 11.984440185355016 ], [ 50.807839445093833, 11.985708610725553 ], [ 50.802873401830198, 11.986482392972007 ], [ 50.79785476558866, 11.986753713698072 ], [ 50.792834245321558, 11.986519831443895 ], [ 50.787862569017648, 11.985783109386146 ], [ 50.782989971139948, 11.984550991460171 ], [ 50.59751937983954, 11.927593375353077 ], [ 50.593086453710434, 11.925999905692732 ], [ 50.5888231589661, 11.923996334494234 ], [ 50.584767336575943, 11.921600445439209 ], [ 50.58095498598643, 11.918833504419384 ], [ 50.577419945590336, 11.915720070780701 ], [ 50.574193592377398, 11.912287779334761 ], [ 50.571304563432442, 11.908567095072463 ], [ 50.568778501752831, 11.904591042756996 ], [ 50.566637828641447, 11.900394913796308 ], [ 50.501367815747138, 11.756030090837928 ], [ 50.500769487696545, 11.754873374205069 ], [ 50.499749881496733, 11.754063193347251 ], [ 50.269425969522679, 11.59008740122874 ], [ 50.268292027814837, 11.589369416672792 ], [ 50.266988058755885, 11.589051626942256 ], [ 49.583198338984033, 11.461218277441294 ], [ 49.579017643861498, 11.460249342268494 ], [ 49.574935435208616, 11.458925476870856 ], [ 49.57098178591697, 11.45725643392492 ], [ 49.240675185051209, 11.300791218594792 ], [ 49.239577021171343, 11.300333977566345 ], [ 49.238411930913934, 11.300093981821924 ], [ 48.90546489607808, 11.24796754158645 ], [ 48.904064552290663, 11.24782906031958 ], [ 48.902668952369652, 11.248009173186066 ], [ 48.537764922529242, 11.31632666877163 ], [ 48.532634551967895, 11.317014584348781 ], [ 48.527460552491149, 11.317168400318792 ], [ 48.522298376810795, 11.316786468147928 ], [ 48.517203350916226, 11.315872881221726 ], [ 48.512230081114197, 11.314437430973816 ], [ 48.507431868781758, 11.312495501945554 ], [ 48.131379506457854, 11.137129437975927 ], [ 48.130369128293957, 11.136711371035377 ], [ 48.129284637403828, 11.136571644480773 ], [ 47.711554061123806, 11.101355985060872 ], [ 47.71046427882559, 11.101312167365917 ], [ 47.709400699339618, 11.101553712651429 ], [ 47.426098051023281, 11.179117464997768 ], [ 47.421266754982987, 11.180186347094658 ], [ 47.416353467118263, 11.180772463742086 ], [ 47.411406306068287, 11.18087007476438 ], [ 47.406473722211729, 11.180478224200948 ], [ 47.401604023164452, 11.179600749668557 ], [ 47.396844900675411, 11.178246244777345 ], [ 47.392242963554054, 11.176427974968686 ], [ 47.387843281203587, 11.174163747599133 ], [ 46.867356729833247, 10.872834947741351 ], [ 46.866334328866486, 10.872309293798407 ], [ 46.866276992757513, 10.873457478615952 ], [ 46.866276992757513, 11.135427929801619 ], [ 46.866345247578032, 11.136730180588437 ], [ 46.866549264077989, 11.138018160828905 ], [ 47.002537134197489, 11.777725761890766 ], [ 47.003323314220594, 11.782593212127482 ], [ 47.003626273157288, 11.787514428107128 ], [ 47.003443065016604, 11.792441555628599 ], [ 47.002775471325542, 11.797326683006601 ], [ 47.001629983805437, 11.802122306967769 ], [ 47.000017741246047, 11.806781794575366 ], [ 46.997954421191302, 11.811259836690768 ], [ 46.995460087489889, 11.815512888562266 ], [ 46.992558995193221, 11.819499593256856 ], [ 46.989279354697828, 11.823181183817553 ], [ 46.985653057425758, 11.826521860235619 ], [ 46.981715365710478, 11.829489137572009 ], [ 46.9775045699038, 11.832054161842875 ], [ 46.973061616038208, 11.834191990597445 ], [ 46.968429707665152, 11.835881835459928 ], [ 46.963653885741117, 11.837107264276925 ], [ 46.958780590646633, 11.837856360904686 ], [ 46.953857210597228, 11.838121841082405 ], [ 46.948931620837548, 11.837901123264816 ], [ 46.74531819146285, 11.818683153879791 ], [ 46.740465218235123, 11.817983632766214 ], [ 46.735704093108502, 11.816812152307113 ], [ 46.731080600355213, 11.815179977776722 ], [ 46.726639200737196, 11.813102804608585 ], [ 46.722422603959345, 11.810600607463996 ], [ 46.718471357961398, 11.807697448150231 ], [ 46.35264142791678, 11.510217135691613 ], [ 46.351752646488308, 11.509557828191436 ], [ 46.350761213107631, 11.509066219954169 ], [ 45.802391317537278, 11.266904560235746 ], [ 45.801402542706278, 11.266517421830612 ], [ 45.800362385248683, 11.266303823435443 ], [ 44.218387265144514, 11.011210280687356 ], [ 44.217344007371459, 11.011086869729901 ], [ 44.21629406472978, 11.011051691685392 ], [ 43.646096877033997, 11.015975476632175 ], [ 43.644938887038187, 11.016040505019113 ], [ 43.644227439745791, 11.016956481149608 ], [ 43.488874802757628, 11.237858022085867 ], [ 43.488195451429497, 11.238939021527942 ], [ 43.488140987332493, 11.240214604407599 ], [ 43.489107644588508, 11.345640607755948 ], [ 43.488927606712402, 11.350362933871747 ], [ 43.488302540357374, 11.355047170163031 ], [ 43.487238029310561, 11.359651471826911 ], [ 43.485743582967352, 11.364134708125395 ], [ 43.483832551382861, 11.368456829810846 ], [ 43.481522006014409, 11.372579226890354 ], [ 43.478832587220332, 11.376465073533085 ], [ 43.475788319877317, 11.380079657039527 ], [ 43.472416398763556, 11.383390687933883 ], [ 43.468746945624758, 11.386368588409537 ], [ 43.464812740093222, 11.388986756550903 ], [ 43.460648926863804, 11.39122180397127 ], [ 43.456292701742392, 11.39305376474387 ], [ 43.268040770071956, 11.461944055991665 ], [ 43.266971231775436, 11.462393461526325 ], [ 43.266220982059032, 11.463278336017602 ], [ 43.170363645178853, 11.587743733466782 ], [ 43.16715086980102, 11.591513298071446 ], [ 43.163580907585057, 11.594946505422262 ], [ 43.159688789203514, 11.598009666769821 ], [ 43.155512706524064, 11.600672724484468 ], [ 43.151093637847339, 11.602909547000339 ], [ 43.146474945802531, 11.604698185234396 ], [ 43.141701951846521, 11.606021087964384 ], [ 43.136821491541781, 11.606865274052256 ], [ 43.131881454976913, 11.607222459823104 ], [ 43.126930316839562, 11.6070891403497 ], [ 43.122016660752848, 11.606466623844998 ], [ 42.539977055756296, 11.503215238714654 ], [ 42.538797277493444, 11.503066234446834 ], [ 42.538562952866855, 11.504232069336824 ], [ 42.527042928131344, 11.581282101038045 ], [ 42.526929654679947, 11.582404447085521 ], [ 42.528056266014168, 11.582347539908779 ], [ 42.638127272561569, 11.571492786356211 ], [ 42.643031850959538, 11.571251418002673 ], [ 42.647936452649105, 11.57149231260745 ], [ 42.652793771475814, 11.572213146679646 ], [ 42.657556957340674, 11.573406967587809 ], [ 42.662180068081497, 11.575062260619871 ], [ 42.66661851259699, 11.577163060045521 ], [ 42.67082948093946, 11.579689103109818 ], [ 42.674772357227845, 11.582616025472714 ], [ 42.678409111398437, 11.585915596209427 ], [ 42.68170466601471, 11.589555990105024 ], [ 42.684627234598246, 11.593502094616877 ], [ 42.776466559501202, 11.731158430651554 ], [ 42.777233081393597, 11.732186679420762 ], [ 42.778457071901684, 11.732569691925884 ], [ 43.047421106328365, 11.801540878689725 ], [ 43.052679247665438, 11.803203191387247 ], [ 43.057722345217741, 11.805434446841678 ], [ 43.062489052056009, 11.808207502871227 ], [ 43.372039537610668, 12.011932525632233 ], [ 43.375873368785385, 12.014725002116837 ], [ 43.379425353639988, 12.017868183623841 ], [ 43.382663529729136, 12.021333786314424 ], [ 43.385558758407683, 12.025090625050947 ], [ 43.388084987034013, 12.029104894015626 ], [ 43.390219483404124, 12.033340470911316 ], [ 43.391943040306728, 12.037759242007084 ], [ 43.393240148358885, 12.042321445103651 ], [ 43.394099135566798, 12.046986027332526 ], [ 43.394512272355925, 12.051711014569205 ], [ 43.394475841125384, 12.056453889136252 ], [ 43.393990169700679, 12.061171972397549 ], [ 43.331285902872693, 12.475990467723065 ], [ 43.330279537631235, 12.480940739581939 ], [ 43.328778817983142, 12.485764203380272 ], [ 43.326799062051499, 12.490411625130781 ], [ 43.324360477571318, 12.494835567739928 ], [ 43.321487955625514, 12.498990875207113 ], [ 43.061998187737558, 12.836538826981959 ], [ 43.058886682637443, 12.840206726065521 ], [ 43.055437139720944, 12.843558680919401 ], [ 43.051681480986005, 12.846563672623537 ], [ 43.047654461219963, 12.849193893047598 ], [ 43.043393346379446, 12.851425002186826 ], [ 43.038937568731995, 12.853236353403945 ], [ 43.034328361950713, 12.854611184492702 ], [ 43.029608379538679, 12.855536772794977 ], [ 43.024821300114347, 12.856004552935996 ], [ 43.020011423210505, 12.856010196088121 ], [ 43.015223259327364, 12.855553650029742 ], [ 43.010501118033282, 12.854639139628528 ], [ 43.005888697924952, 12.85327512774459 ], [ 43.001428682241524, 12.851474236915355 ], [ 42.997162343874791, 12.849253132546862 ], [ 42.993129163430694, 12.846632368692452 ], [ 42.98936646387665, 12.84363619784598 ], [ 42.928946671895098, 12.790581127562792 ], [ 42.927977281030053, 12.789813713943804 ], [ 42.926815689339371, 12.790237207811336 ], [ 42.782403398107313, 12.851390166193491 ], [ 42.781310647767512, 12.851918290402109 ], [ 42.780921376542494, 12.853067849621238 ], [ 42.733232189599185, 13.020884063873689 ], [ 42.731629785297855, 13.025611384601733 ], [ 42.729564023926521, 13.03015537962456 ], [ 42.727055493078538, 13.034470763013719 ], [ 42.724129193034031, 13.038514527208159 ], [ 42.720814287604519, 13.042246371632052 ], [ 42.549984423309461, 13.216235807166658 ], [ 42.546484907550891, 13.219475441867502 ], [ 42.542692674376575, 13.222366948583909 ], [ 42.538642220735923, 13.224884024038543 ], [ 42.534370392542115, 13.227003771056939 ], [ 42.529916049494517, 13.228706906857081 ], [ 42.525319711582192, 13.229977938459813 ], [ 42.520623190484208, 13.230805303624397 ], [ 42.515869209219751, 13.231181476027185 ], [ 42.511101013508075, 13.231103033726605 ], [ 42.380636777527691, 13.222721445478603 ], [ 42.379449728683319, 13.222703876719232 ], [ 42.379096266793105, 13.223837216170763 ], [ 42.301089747803807, 13.525606620714282 ], [ 42.299604466511646, 13.530361086938628 ], [ 42.2976534973158, 13.534944178558062 ], [ 42.295256202422429, 13.539310411120525 ], [ 42.292436373554182, 13.543416452370815 ], [ 42.289221995831504, 13.547221552297392 ], [ 42.285644970037005, 13.550687947551936 ], [ 42.281740796019193, 13.553781236228081 ], [ 42.277548220377696, 13.556470719279815 ], [ 42.273108851926281, 13.558729705191221 ], [ 42.268466748750271, 13.560535774873843 ], [ 42.263667980956221, 13.561871004162796 ], [ 42.258760173453652, 13.562722141703398 ], [ 42.253792033306176, 13.563080740462976 ], [ 42.248812866342952, 13.562943241562623 ], [ 42.24387208782769, 13.562311009596952 ], [ 42.239018732041657, 13.561190319091311 ], [ 42.234300965647634, 13.559592292230855 ], [ 42.22976560966454, 13.557532788479493 ], [ 42.225457674796694, 13.555032247184158 ], [ 42.223888565890945, 13.554013717315756 ], [ 42.222911442865772, 13.554686957554772 ], [ 42.107688535045732, 13.642723335906037 ], [ 42.10667167054747, 13.643590797983119 ], [ 42.105863682267383, 13.644655532129464 ], [ 41.979394012056581, 13.831390030089567 ], [ 41.976555059635764, 13.835181685998322 ], [ 41.973370050957676, 13.838687684443642 ], [ 41.969867569953266, 13.84187656076482 ], [ 41.96607904971588, 13.844719696320674 ], [ 41.962038490404304, 13.847191575328177 ], [ 41.957782154107598, 13.849270013854424 ], [ 41.953348239410133, 13.85093635890682 ], [ 41.677769099607715, 13.939851360313536 ], [ 41.67656576208887, 13.940310370302587 ], [ 41.675752630423709, 13.941309133662715 ], [ 41.179881110537899, 14.619991160758509 ], [ 41.176754111042165, 14.623852497392777 ], [ 41.173259308416526, 14.627384409206133 ], [ 41.169431214600813, 14.630552017797417 ], [ 41.165307632858195, 14.633324042339414 ], [ 41.160929284459712, 14.635673108483862 ], [ 41.156339406552824, 14.637576018689128 ], [ 41.151583325185108, 14.639013981300995 ], [ 41.146708007699651, 14.639972796124361 ], [ 40.767666952786897, 14.695121424179924 ], [ 40.766492892879675, 14.695351709656158 ], [ 40.7660346798829, 14.69645691955297 ], [ 40.70183897561639, 14.875754650215102 ], [ 40.699866218013206, 14.880485208429638 ], [ 40.69741954045346, 14.884988953815499 ], [ 40.694524652579524, 14.889218561099792 ], [ 40.691211973819421, 14.893129585647706 ], [ 40.687516313740055, 14.896680930485909 ], [ 40.683476506268924, 14.899835278148776 ], [ 40.679135001627927, 14.902559482809638 ], [ 40.674537420267228, 14.904824918576494 ], [ 40.515281820324127, 14.973390160664602 ], [ 40.514213114115186, 14.973913423758702 ], [ 40.513932830939524, 14.975069874608421 ], [ 40.482474665851299, 15.139512047763336 ], [ 40.482283910858698, 15.140973936426724 ], [ 40.482267370475412, 15.142448125134775 ], [ 40.504723387727253, 15.60946614026629 ], [ 40.504847586385317, 15.610719732885704 ], [ 40.505221753753645, 15.611922612157597 ], [ 40.72468534238029, 16.208921436592714 ], [ 40.726364103506974, 16.21445830051066 ], [ 40.727391998465833, 16.220152028017299 ], [ 40.801823161213015, 16.833728009015299 ], [ 40.802041767864687, 16.834984821344346 ], [ 40.802632205636087, 16.836115639338917 ], [ 41.055717816803131, 17.265407656108625 ], [ 41.057879278195792, 17.269494939014901 ], [ 41.05965394206072, 17.273764407960144 ], [ 41.061026633036441, 17.27817955420835 ], [ 41.223323043168953, 17.900325755026095 ], [ 41.223740211089854, 17.9016269880922 ], [ 41.224431591108839, 17.902805644206602 ], [ 41.473504022764608, 18.27839934000572 ], [ 41.474176728522785, 18.279313991756773 ], [ 41.474874042590308, 18.278417959417038 ], [ 41.782946965120331, 17.840194099396307 ], [ 41.78625633656641, 17.835985096689296 ], [ 41.789996805425524, 17.832154099969156 ], [ 41.794125479527089, 17.828745039494649 ], [ 42.300529240497411, 17.454335037901565 ], [ 42.301468403902398, 17.453565988225925 ], [ 42.301699811394847, 17.452374385994709 ], [ 42.335491714766441, 17.216547180920113 ], [ 42.336398216294171, 17.21184056610862 ], [ 42.337751221142632, 17.207242376694992 ], [ 42.339538295755794, 17.202794868141819 ], [ 42.341743017655666, 17.198538911216779 ], [ 42.344345126358085, 17.194513616407161 ], [ 42.347320709558225, 17.190755974510626 ], [ 42.350642422874792, 17.187300516705054 ], [ 42.35427974113361, 17.184178997221274 ], [ 42.355258279718555, 17.183490213592652 ], [ 42.356659667480933, 17.18239788988825 ], [ 42.357447979872369, 17.181490504362785 ], [ 42.711676096158989, 16.731553533188908 ], [ 42.712360413595455, 16.730593562397267 ], [ 42.712638566241168, 16.729447933582822 ], [ 42.843058112990086, 16.053302068010908 ], [ 42.843221052913982, 16.052188657941283 ], [ 42.843180970176938, 16.051064102572994 ], [ 42.83042506334354, 15.893661025017408 ], [ 42.830282750089431, 15.892542071813283 ], [ 42.82966183964492, 15.891600382079337 ], [ 42.705963806230343, 15.721433775587135 ], [ 42.703252950795417, 15.717287144156293 ], [ 42.700965755586061, 15.712892598959508 ], [ 42.699124674719855, 15.708293282634621 ], [ 42.697747782669005, 15.703534348122291 ], [ 42.696848596817567, 15.698662515385337 ], [ 42.696435944756956, 15.693725612744087 ], [ 42.69651387762277, 15.688772107330673 ], [ 42.697081630323439, 15.683850629271879 ], [ 42.698133629051441, 15.679009494271842 ], [ 42.808766212314147, 15.268977482436421 ], [ 42.809028595646225, 15.267766814181382 ], [ 42.808797704265253, 15.266549747294711 ], [ 42.795217342176606, 15.210472217304881 ], [ 42.794707839870696, 15.20873956434291 ], [ 42.793553475810256, 15.203955400611767 ], [ 42.792875034553767, 15.199080926645079 ], [ 42.792679089051518, 15.194163367865505 ], [ 42.792967537684596, 15.189250367114791 ], [ 42.793737585872755, 15.184389523075087 ], [ 42.794981773149203, 15.179627929118066 ], [ 42.796688045439936, 15.17501171704968 ], [ 42.798839871847314, 15.170585610170841 ], [ 42.801416404806616, 15.166392489984148 ], [ 42.804392682063693, 15.162472980744532 ], [ 42.807739868517075, 15.158865055878808 ], [ 42.811425535581442, 15.155603670087293 ], [ 42.815413975365821, 15.15272042069177 ], [ 42.819666546622805, 15.150243241510791 ], [ 42.824142049116979, 15.148196132228142 ], [ 42.828797122785616, 15.146598925876425 ], [ 42.862799242256273, 15.136773966782425 ], [ 42.863976525567573, 15.136367709685688 ], [ 42.864487293104887, 15.135231858750597 ], [ 42.936796603625389, 14.949678132464317 ], [ 42.937200742555454, 14.948457952052395 ], [ 42.937345473661715, 14.94718075926381 ], [ 42.945572504429776, 14.812672808439221 ], [ 42.945586095705593, 14.811461282164396 ], [ 42.944261601138081, 14.810584752300516 ], [ 42.940270258209175, 14.807648956021698 ], [ 42.936589078967955, 14.804332536633137 ], [ 42.93325421217957, 14.800668060999355 ], [ 42.930298405859944, 14.796691513857969 ], [ 42.927750685693901, 14.792441944453618 ], [ 42.925636070006277, 14.787961083078784 ], [ 42.923975324084722, 14.783292931287027 ], [ 42.922784756266971, 14.778483329802688 ], [ 42.922076057794776, 14.773579508370137 ], [ 42.921856188007247, 14.768629621963019 ], [ 42.922127306000903, 14.763682277907836 ], [ 42.922886749427612, 14.75878605856548 ], [ 42.924127060638533, 14.753989044257924 ], [ 43.021123203577901, 14.443275013135461 ], [ 43.021426260618867, 14.442101327665865 ], [ 43.019976789665641, 14.440530428035363 ], [ 43.016948351542347, 14.43692091318311 ], [ 43.014273120336242, 14.433042360240432 ], [ 43.011974852137826, 14.42892921081166 ], [ 43.010073955600809, 14.424617989721199 ], [ 43.008587310713011, 14.420146980672577 ], [ 43.00752811890181, 14.415555886288626 ], [ 43.00690578580528, 14.410885475551632 ], [ 43.006725837750032, 14.406177221774202 ], [ 43.006989872677295, 14.401472934315676 ], [ 43.007695545953233, 14.396814387314421 ], [ 43.008836591189294, 14.39224294873291 ], [ 43.010402875887834, 14.387799213009629 ], [ 43.280454982878538, 13.723294729871856 ], [ 43.280869280183737, 13.722104675597132 ], [ 43.280777412993288, 13.720847921105133 ], [ 43.228370453321673, 13.300264499061349 ], [ 43.227994545880335, 13.294964769761345 ], [ 43.228183119189737, 13.289655073238494 ], [ 43.228934043997967, 13.284395363266436 ], [ 43.230238841331548, 13.279245029201924 ], [ 43.232082778234712, 13.274262225397345 ], [ 43.234445034124747, 13.269503214558128 ], [ 43.472555994645091, 12.84768646808392 ], [ 43.473095442942608, 12.846611626552287 ], [ 43.473068649832811, 12.845409307579121 ], [ 43.468218389951431, 12.777234200167534 ], [ 43.468111223722417, 12.772311584541814 ], [ 43.468488746866541, 12.767402296866917 ], [ 43.469347298371339, 12.762553944722855 ], [ 43.470678552475093, 12.75781354477027 ], [ 43.472469599405457, 12.753227066808645 ], [ 43.474703070571366, 12.748838987986392 ], [ 43.477357306994101, 12.744691861485858 ], [ 43.480406569344218, 12.74082590386589 ], [ 43.483821287547414, 12.737278605063704 ], [ 43.487568347538911, 12.734084364838026 ], [ 43.49161141238551, 12.731274159179101 ], [ 43.495911274661211, 12.728875239920514 ], [ 43.500426236659372, 12.72691087046586 ], [ 43.505112514754181, 12.725400100193005 ], [ 43.509924663990255, 12.724357579723671 ], [ 43.514816018782902, 12.723793418849732 ], [ 43.519739145455375, 12.723713088494005 ], [ 43.524646302224646, 12.724117367656234 ], [ 43.529489902175065, 12.725002335858774 ], [ 43.534222974730163, 12.726359411165246 ], [ 43.538799621147533, 12.728175433403438 ], [ 43.599513852670547, 12.755800408715677 ], [ 43.600596480800625, 12.756232112585868 ], [ 43.601678125443293, 12.755797950442597 ], [ 43.932689670828516, 12.60427912992051 ], [ 43.937188505343869, 12.602478077886712 ], [ 43.941840561702804, 12.6011209957012 ], [ 43.946602141650501, 12.600220630871441 ], [ 43.951428518141995, 12.59978544081255 ], [ 43.956274355477639, 12.599819513404084 ], [ 43.96109413515584, 12.600322528591285 ], [ 44.402888191865166, 12.668208329918365 ], [ 44.407795338238373, 12.669216264623191 ], [ 44.412576994598389, 12.670710179062485 ], [ 44.41718516073179, 12.672675076714841 ], [ 44.421573577990671, 12.6750912331376 ], [ 44.425698193655798, 12.67793439396883 ], [ 44.609640083030108, 12.818826054657485 ], [ 44.610617178970394, 12.819501662858341 ], [ 44.611761690277291, 12.81918345414377 ], [ 44.805911382976099, 12.754875380068931 ], [ 44.810675449453342, 12.753554841164258 ], [ 44.815546636294535, 12.752711223267017 ], [ 44.820477322480173, 12.752352773637199 ], [ 44.825419305321532, 12.752482996500232 ], [ 44.830324271693094, 12.753100618789471 ], [ 44.835144270344614, 12.754199602591768 ], [ 44.839832180675444, 12.755769204174475 ], [ 44.844342173388426, 12.75779407901684 ], [ 44.84863015851986, 12.76025443181897 ], [ 44.852654216465716, 12.763126210021886 ], [ 44.856375007790206, 12.766381338946818 ], [ 44.85975615781053, 12.769987996254963 ], [ 44.862764612197978, 12.773910923044619 ], [ 44.865370960119066, 12.778111768544353 ], [ 44.867549721757626, 12.782549465032474 ], [ 44.869279597407065, 12.787180629317598 ], [ 44.870543675697597, 12.79195998685536 ], [ 44.871329598922777, 12.796840814355125 ], [ 44.871629683849264, 12.801775396549724 ], [ 44.871649105040113, 12.80349695505425 ], [ 44.87270603243573, 12.803962182007622 ], [ 45.013992007710129, 12.858265974790147 ], [ 45.015135041060738, 12.85864152813833 ], [ 45.015643143308836, 12.858236886363468 ], [ 45.019605717407018, 12.855385818963281 ], [ 45.023827432232544, 12.852934757410411 ], [ 45.028268045422273, 12.850907065791056 ], [ 45.03288522802319, 12.849322072531182 ], [ 45.037634967981752, 12.848194886153502 ], [ 45.042471989677018, 12.847536251259541 ], [ 45.04735018549831, 12.847352446109591 ], [ 45.05222305535365, 12.847645222776899 ], [ 45.057044149919406, 12.848411790446489 ], [ 45.061767513405989, 12.849644842017854 ], [ 45.066348121619079, 12.851332623757941 ], [ 45.070742311140684, 12.853459047340444 ], [ 45.074908195538939, 12.856003843203462 ], [ 45.078806064639252, 12.858942753763653 ], [ 45.082398763050932, 12.862247764645137 ], [ 45.085652044340932, 12.865887371719008 ], [ 45.08853489747878, 12.869826881407993 ], [ 45.091019842440929, 12.874028741393653 ], [ 45.093083192156683, 12.878452898573785 ], [ 45.094705278298839, 12.883057180857859 ], [ 45.117810438631366, 12.960516284493119 ], [ 45.118226477494616, 12.961689256182474 ], [ 45.119365600442883, 12.962190604193765 ], [ 45.392586933881198, 13.06617083659274 ], [ 45.397595211395078, 13.068398310711244 ], [ 45.40232957338047, 13.071160610694225 ], [ 45.406733123251051, 13.074424539789959 ], [ 45.410752940052305, 13.078150872771459 ], [ 45.664891777658525, 13.341065332203828 ], [ 45.665811645681934, 13.34192423729656 ], [ 45.667058480621321, 13.342095344785202 ], [ 46.695033700745945, 13.429841440478317 ], [ 46.700630832288745, 13.430640019953584 ], [ 46.706102024733426, 13.432065384439975 ], [ 47.39185340232283, 13.652808361247848 ], [ 47.395996906949883, 13.654347398415739 ], [ 47.39998830009656, 13.656246357801086 ], [ 47.40379638939902, 13.658490399214035 ], [ 48.015855418437333, 14.056626665433994 ], [ 48.016859616109862, 14.057213647288888 ], [ 48.017918793443563, 14.056732914473958 ], [ 48.174488607507577, 13.976446405274677 ], [ 48.179196685611331, 13.974331545192969 ], [ 48.184097696367509, 13.972713297324429 ], [ 48.189139417286164, 13.971608904833221 ], [ 48.19426812654681, 13.971030135521675 ], [ 48.199429175428769, 13.970983156439008 ], [ 48.20456757061806, 13.971468468168629 ], [ 48.680662809629638, 14.041381345739902 ], [ 48.685519214237637, 14.042342198705144 ], [ 48.690256796502283, 14.043778589467836 ], [ 48.694829113138773, 14.045676436857132 ], [ 48.699191340987987, 14.048017135968276 ], [ 48.703300716425154, 14.050777740549497 ], [ 48.707116954578545, 14.053931187947819 ], [ 48.996156099991836, 14.317909577730683 ], [ 48.99968762394694, 14.321476073049455 ], [ 49.002843792967994, 14.325378655196555 ], [ 49.005592803538725, 14.329577999334193 ], [ 49.007906954923911, 14.334031790266733 ], [ 49.092259537495885, 14.51845195759066 ], [ 49.092831296288161, 14.519551774510782 ], [ 49.093927192303113, 14.520131013061526 ], [ 49.371096726623833, 14.649197152035168 ], [ 49.373777745809292, 14.650261847763472 ], [ 49.940958418583932, 14.838376906021661 ], [ 49.942159967681256, 14.838709540570841 ], [ 49.943403711140213, 14.838795959231526 ], [ 50.167245371902403, 14.843093228328881 ], [ 50.172053842367831, 14.843417850897037 ], [ 50.17680872232458, 14.844203907272583 ], [ 50.181465835575146, 14.845444094435882 ], [ 50.185981914243875, 14.847126890171111 ], [ 50.190315000766105, 14.849236660115801 ], [ 50.553015390366596, 15.048004669699605 ], [ 50.554066658239165, 15.048518043855049 ], [ 50.555195410066261, 15.048825674276316 ], [ 51.362877958787728, 15.228615809722609 ], [ 51.367767643692112, 15.229967925340169 ], [ 51.372495145130905, 15.231808567959927 ], [ 52.192815441420734, 15.600153637872227 ], [ 52.197346888207612, 15.60247240429554 ], [ 52.201619096229066, 15.605239880822932 ], [ 52.205587787145937, 15.608427384566387 ], [ 52.209211828353844, 15.612001879360278 ], [ 52.212453659292805, 15.61592631815728 ], [ 52.215279680735186, 15.620160026994151 ], [ 52.217660603017372, 15.624659126547884 ], [ 52.219571749605876, 15.629376986913076 ], [ 52.220993312851732, 15.6342647108871 ], [ 52.221910559282406, 15.639271640754156 ], [ 52.222313982303575, 15.644345883315779 ], [ 52.222199400728073, 15.649434847726223 ], [ 52.221568002110871, 15.654485790558446 ], [ 52.160204883912371, 16.000968254274188 ], [ 52.160058592046894, 16.002093884896134 ], [ 52.160524864811094, 16.003128793257336 ], [ 52.292227975411187, 16.262820517981552 ], [ 52.292774516472178, 16.263788034853501 ], [ 52.293626002701359, 16.26450201470654 ], [ 52.531535600301567, 16.446466125366811 ], [ 52.532594781760018, 16.447192654096597 ], [ 52.533780595453905, 16.447686167258091 ], [ 53.337615111894628, 16.734445305146764 ], [ 53.338643577294427, 16.734762788473329 ], [ 53.339711341638456, 16.734898494209176 ], [ 53.605009747248666, 16.757013195160084 ], [ 53.610104202868555, 16.757703068627922 ], [ 53.615100891451426, 16.758912410048065 ], [ 53.619946989197864, 16.760628434551585 ], [ 53.62459126431883, 16.762833000736901 ], [ 54.083758973379261, 17.010481165202908 ], [ 54.084992379647822, 17.011061119767607 ], [ 54.086347248191821, 17.011209341051199 ], [ 54.590690370218894, 17.038405503578666 ], [ 54.592039323110576, 17.038404634583138 ], [ 54.593316474594403, 17.037970401066882 ], [ 54.789872945792688, 16.958948638400216 ], [ 54.794366364996492, 16.957386075019009 ], [ 54.798987949826696, 16.956257636221981 ], [ 54.80369586122287, 16.955573537729656 ], [ 54.808447478612919, 16.955339972663921 ], [ 54.813199785755806, 16.955559055481888 ], [ 54.817909760166138, 16.95622880283377 ], [ 54.822534762595453, 16.957343151518106 ], [ 54.827032923043888, 16.958892013371706 ], [ 55.091048717007766, 17.064100971456586 ], [ 55.092166871860073, 17.064482726140319 ], [ 55.092393416578382, 17.063323120861387 ], [ 55.161518629701263, 16.582314122696999 ], [ 55.161637198823897, 16.580978766711404 ], [ 55.161323131016701, 16.5796754648822 ], [ 54.979275971909587, 15.971049597538505 ], [ 54.978868858006692, 15.96989832866309 ], [ 54.978144083262862, 15.968915545205713 ], [ 54.655924581007838, 15.574255833529376 ], [ 54.655152348969871, 15.573394992710302 ], [ 54.654234236791396, 15.57269181473578 ], [ 54.274873127042582, 15.309186197787588 ], [ 54.271256133343798, 15.306421462429784 ], [ 54.267905608216402, 15.303339192748778 ], [ 54.264849329396718, 15.29996494249248 ], [ 54.262112635153812, 15.296326686091865 ], [ 54.259718214221003, 15.292454586737216 ], [ 53.914366311716115, 14.672549330522459 ], [ 53.913731959104041, 14.671530049346597 ], [ 53.912832252127785, 14.670735150165241 ], [ 53.579698659615161, 14.403968274681057 ], [ 53.575957638960347, 14.400652383642573 ], [ 53.572566426923238, 14.396979503323498 ], [ 53.569558922559793, 14.392986348377502 ], [ 53.566965189327441, 14.388712834970683 ], [ 53.564811154566328, 14.384201681773687 ], [ 53.56311835032578, 14.37949798293957 ], [ 53.561903698126798, 14.374648757335995 ], [ 53.561179339812, 14.369702478537681 ], [ 53.560952516173998, 14.364708590277406 ], [ 53.561225494575353, 14.359717012199155 ], [ 53.561995546283669, 14.354777640853996 ], [ 53.563254973748442, 14.349939850926784 ], [ 53.564991187546887, 14.345252001679532 ], [ 53.567186832229666, 14.340760953545091 ], [ 53.569819959808513, 14.336511599703345 ], [ 53.5728642491516, 14.332546417322362 ], [ 53.576289269093408, 14.328905042950357 ], [ 53.580060782629175, 14.325623876302901 ], [ 53.58414108915305, 14.322735716405992 ], [ 53.588489401318895, 14.320269433732163 ], [ 53.593062252756631, 14.318249681606961 ], [ 53.597813932568485, 14.316696649770682 ], [ 53.602696942261858, 14.315625862558738 ], [ 53.60766247055129, 14.315048023718113 ], [ 54.726262107638668, 14.241295308960979 ], [ 54.727350529086138, 14.241175268117209 ], [ 54.728401109334477, 14.240866476612743 ], [ 55.52092241824576, 13.96951351872208 ], [ 55.522290845807092, 13.968952068531847 ], [ 55.523582993679241, 13.968232225366162 ], [ 56.131828137776623, 13.580308146402928 ], [ 56.132948243784121, 13.579502844313234 ], [ 56.133863142205001, 13.578470318379754 ], [ 56.442133901342793, 13.188941536923332 ], [ 56.442927778476893, 13.187815135895546 ], [ 56.443453971148102, 13.186541502725412 ], [ 56.597480201323052, 12.745863009600855 ], [ 56.597804264326676, 12.744779812966369 ], [ 56.597823934082484, 12.743649350724478 ], [ 56.584991689782669, 12.287949297953238 ], [ 56.584886784065816, 12.286652230467546 ], [ 56.584384816106351, 12.285451640013097 ], [ 56.311144390055645, 11.717720993748268 ], [ 56.310530062903275, 11.716597195744724 ], [ 56.309601988329923, 11.715714587457155 ], [ 55.772735353042918, 11.255578947384015 ], [ 55.771866015974346, 11.254898361382962 ], [ 55.770890169352938, 11.254381962684986 ], [ 55.060101541137165, 10.917718543306236 ], [ 55.05897941425691, 10.917252585813999 ], [ 55.05781724697416, 10.916898111094319 ], [ 53.522623298381419, 10.529338655714881 ], [ 53.518018619068187, 10.527937267339379 ], [ 53.513570022129208, 10.526099620411602 ], [ 53.509318731753119, 10.523842744009396 ], [ 53.50530414373118, 10.521187552119763 ], [ 53.501563460384979, 10.518158649833437 ], [ 53.498131345820525, 10.514784105334819 ], [ 53.495039604703464, 10.511095189800169 ], [ 53.492316887532105, 10.507126087614356 ], [ 53.489988425139394, 10.502913579591524 ], [ 53.488075794884281, 10.498496702135233 ], [ 53.486596720698941, 10.493916385496513 ], [ 53.485564908844928, 10.489215074482063 ], [ 53.484989920900219, 10.484436335127368 ], [ 53.464619764949177, 10.200406431788254 ], [ 53.464474495141658, 10.199204662498268 ], [ 53.46409934362628, 10.198053743698372 ], [ 53.296863487963932, 9.758821925733345 ], [ 53.29628854939979, 9.75753644804881 ], [ 53.29543896047381, 9.756413413816496 ], [ 52.906995674311908, 9.299359374072893 ], [ 52.904231858471604, 9.295793031443395 ], [ 52.901800789247346, 9.291992060491534 ], [ 52.899722262814173, 9.28798741248994 ], [ 52.898013204594335, 9.283811697251652 ], [ 52.704150249416223, 8.74155457453972 ], [ 52.703660790619082, 8.740378848340635 ], [ 52.703053866129729, 8.739259230248102 ], [ 51.253210003419767, 6.363185464083355 ], [ 51.250716816090538, 6.358571452640651 ], [ 51.248720644130252, 6.353721670979897 ], [ 50.990956300986461, 5.620363702809225 ], [ 50.99052191604143, 5.619290087832195 ], [ 50.989989770335811, 5.618261418620366 ], [ 50.537629790305488, 4.835244940962258 ], [ 50.536486249728753, 4.833447111172325 ], [ 49.641353014349342, 3.550425615584389 ], [ 49.640785312525026, 3.549674040836269 ], [ 49.640162535557565, 3.54896743004352 ], [ 47.693872900015172, 1.501916869225091 ], [ 47.69313629464969, 1.501203411000423 ], [ 47.69229265009222, 1.500620423896434 ], [ 45.959013060349719, 0.405484626786939 ], [ 45.955929702088106, 0.403371179610923 ], [ 45.95301285821418, 0.401033279067623 ], [ 45.192903565002318, -0.256351565398875 ], [ 45.188794618718376, -0.260338596814946 ], [ 43.845614835176107, -1.722031495618427 ], [ 43.842857246382117, -1.725302954656102 ], [ 43.840389445473093, -1.728798194113617 ], [ 43.413787011271815, -2.391475853590339 ], [ 43.412934272252521, -2.392645069380021 ], [ 43.411951588888357, -2.393707407745808 ], [ 42.933308405254962, -2.854283665461782 ], [ 42.93225422328338, -2.855190000775209 ], [ 42.931024959488468, -2.85583934956613 ], [ 42.245336563702985, -3.170268358264797 ], [ 42.244277845745813, -3.170696190195937 ], [ 42.243158803244036, -3.170923495614467 ], [ 41.653158439480457, -3.262803783896858 ], [ 41.651778679044888, -3.262940525159159 ], [ 41.650392269858948, -3.262923015117654 ], [ 41.05075393848449, -3.221882878803459 ], [ 41.049347640068468, -3.221705751304921 ], [ 41.047970590701588, -3.221369917377467 ], [ 40.48947185128884, -3.050948128046115 ], [ 40.488276467326607, -3.050515559562447 ], [ 40.487131383993606, -3.049963434150408 ], [ 40.173022608635307, -2.878234211301603 ], [ 40.171989940391626, -2.877600816088576 ] ], [ [ 53.846102646081299, 12.598665631764948 ], [ 53.844957382724658, 12.598980640541253 ], [ 53.526914512051057, 12.70320189735072 ], [ 53.522381873088051, 12.704454513945409 ], [ 53.517751601746468, 12.705275763971617 ], [ 53.513064655303154, 12.705658383024687 ], [ 53.508362492357172, 12.705598986630294 ], [ 53.503686706105839, 12.705098100181957 ], [ 53.499078656430235, 12.704160154293657 ], [ 53.494579104044433, 12.702793445608632 ], [ 53.490227849944802, 12.701010063411044 ], [ 53.486063383348416, 12.698825782689658 ], [ 53.482122541234951, 12.696259924599463 ], [ 53.478440182503512, 12.69333518555551 ], [ 53.359718960949948, 12.589571027256284 ], [ 53.356119142219896, 12.586091860105011 ], [ 53.352885288225892, 12.582270147491375 ], [ 53.350049819387721, 12.578144203305682 ], [ 53.347641162186633, 12.57375539145697 ], [ 53.345683464180844, 12.569147711186611 ], [ 53.344196351918505, 12.564367355961846 ], [ 53.343194734175306, 12.559462250371521 ], [ 53.342688652489208, 12.554481569666764 ], [ 53.342683180490866, 12.549475246763379 ], [ 53.343178373038803, 12.544493471648401 ], [ 53.344169265669471, 12.539586188209448 ], [ 53.345645924367581, 12.534802593531277 ], [ 53.347593545157764, 12.530190644679285 ], [ 53.349992602519173, 12.525796577914614 ], [ 53.352819045135071, 12.521664445160843 ], [ 53.356044537014945, 12.517835672369388 ], [ 53.35963674157189, 12.51434864421109 ], [ 53.363559645807229, 12.511238319257625 ], [ 53.367773921352295, 12.508535879510664 ], [ 53.713741423195223, 12.310392390339718 ], [ 53.717990314709795, 12.308221314586973 ], [ 53.722426806838605, 12.30646512934111 ], [ 53.727010497957963, 12.305139827583378 ], [ 53.731699645953093, 12.304257478385765 ], [ 53.736451548349336, 12.303826117002073 ], [ 53.741222931189064, 12.303849671693589 ], [ 53.745970343112887, 12.304327927955757 ], [ 53.750650551056381, 12.305256530471592 ], [ 54.395053519566609, 12.465413168081863 ], [ 54.399807894443448, 12.466848955678516 ], [ 54.404396376267847, 12.468749324337317 ], [ 54.408773694038395, 12.471095524590458 ], [ 54.449986111131473, 12.495895281461351 ], [ 54.454057097734761, 12.498625429388271 ], [ 54.457841196446637, 12.501741073232772 ], [ 54.461302039596688, 12.505212269614109 ], [ 54.46440636621243, 12.509005658058468 ], [ 54.467124341679117, 12.513084781615005 ], [ 54.469429844469929, 12.517410437231044 ], [ 54.471300717190985, 12.52194105251913 ], [ 54.472718979528409, 12.526633085294938 ], [ 54.473671001050981, 12.531441442046217 ], [ 54.474147632207483, 12.536319911311026 ], [ 54.474144292259901, 12.541221607800178 ], [ 54.473661013307314, 12.546099422995633 ], [ 54.472702439977432, 12.550906477894243 ], [ 54.471277784788619, 12.555596573545721 ], [ 54.469400739611615, 12.560124635054855 ], [ 54.467089344081629, 12.564447144780807 ], [ 54.464365812225623, 12.568522560570193 ], [ 54.461256318970982, 12.572311715004407 ], [ 54.457790748587229, 12.57577819182422 ], [ 54.454002407478661, 12.578888675913902 ], [ 54.449927704087919, 12.581613273481334 ], [ 54.445605798986975, 12.583925799356969 ], [ 54.441078228518386, 12.585804028650466 ], [ 54.136657935120581, 12.694929169299247 ], [ 54.131853546394488, 12.696383713237077 ], [ 54.126927524997541, 12.69734919876014 ], [ 54.121929520987258, 12.69781589460503 ], [ 54.116909909943978, 12.697779096879156 ], [ 54.111919285228339, 12.697239176471935 ], [ 54.107007948043744, 12.696201575316547 ], [ 54.102225400443487, 12.694676751539925 ], [ 53.847233603104215, 12.59902866743476 ], [ 53.846102646081299, 12.598665631764948 ] ], [ [ 42.714986079293517, 15.179484783116015 ], [ 42.719719898141364, 15.178363289549113 ], [ 42.724540298944007, 15.17770714565734 ], [ 42.729401648338538, 15.177522562968237 ], [ 42.734257925313386, 15.177811288873603 ], [ 42.739063156876121, 15.178570590087437 ], [ 42.743771853266715, 15.179793278521188 ], [ 42.748339438596147, 15.181467779331326 ], [ 42.75272267283367, 15.183578240495111 ], [ 42.756880061147868, 15.186104682877165 ], [ 42.760772246726411, 15.18902318936628 ], [ 42.764362383355831, 15.19230613129189 ], [ 42.767616484234118, 15.195922429976839 ], [ 42.770503743714102, 15.199837850950384 ], [ 42.772996828931767, 15.204015328036173 ], [ 42.775072138558684, 15.208415314247201 ], [ 42.776710026229082, 15.212996156165888 ], [ 42.777894986526391, 15.217714488265118 ], [ 42.778615801768616, 15.222525643437363 ], [ 42.778865648202952, 15.227384075845462 ], [ 42.778642160604278, 15.232243792092126 ], [ 42.777947454666119, 15.237058786626319 ], [ 42.776788106971928, 15.241783477264741 ], [ 42.775175092736468, 15.24637313670538 ], [ 42.773123681906576, 15.250784315948149 ], [ 42.753986015475562, 15.287191178326353 ], [ 42.751540779406739, 15.291343799469587 ], [ 42.748707130217589, 15.295241731493666 ], [ 42.745511390742912, 15.298848765039603 ], [ 42.74198324741058, 15.302131393013958 ], [ 42.73815547447311, 15.30505912184886 ], [ 42.734063629555315, 15.307604754768237 ], [ 42.729745723346099, 15.309744644428916 ], [ 42.725241866502856, 15.31145891258971 ], [ 42.720593897048488, 15.312731634767879 ], [ 42.715844991722228, 15.313550988167655 ], [ 42.711039264894644, 15.313909361506642 ], [ 42.706221358772623, 15.31380342571989 ], [ 42.701436028701124, 15.313234164884831 ], [ 42.696727727413894, 15.312206867079809 ], [ 42.692140192095287, 15.310731075261137 ], [ 42.687716038089086, 15.308820498614974 ], [ 42.683496363028489, 15.306492885207531 ], [ 42.679520365064768, 15.303769857116601 ], [ 42.675824978740827, 15.300676709575932 ], [ 42.672444531892346, 15.297242175998266 ], [ 42.669410426763569, 15.293498161059855 ], [ 42.66675084830004, 15.289479444325892 ], [ 42.651083983707935, 15.263129398961201 ], [ 42.648830404481714, 15.25888767948585 ], [ 42.646994230505527, 15.254449293679549 ], [ 42.645592406582921, 15.249855200392902 ], [ 42.644637869195556, 15.245147795395184 ], [ 42.644139427121225, 15.240370520132554 ], [ 42.644101680143557, 15.235567460836428 ], [ 42.644524976603805, 15.230782941681577 ], [ 42.645405410186193, 15.226061115748379 ], [ 42.646734855966677, 15.221445557564024 ], [ 42.648501045392337, 15.216978860982758 ], [ 42.650687679499555, 15.212702246116118 ], [ 42.653274579326052, 15.208655178940486 ], [ 42.65623787212887, 15.204875007092385 ], [ 42.659550211689698, 15.201396615212479 ], [ 42.663181030674565, 15.198252103018904 ], [ 42.667096822719024, 15.195470489080748 ], [ 42.671261451635658, 15.193077443025372 ], [ 42.675636484890418, 15.191095048650839 ], [ 42.680181548270397, 15.189541600129528 ], [ 42.714986079293517, 15.179484783116015 ] ] ], [ [ [ 33.664976817926558, 35.361541723674421 ], [ 33.664905167159176, 35.36271041766647 ], [ 33.660382193123311, 35.76717228851485 ], [ 33.66045627342254, 35.76867424737371 ], [ 33.660711001465785, 35.77015630065501 ], [ 33.766426233024134, 36.22028160499864 ], [ 33.766774493591114, 36.221485719961265 ], [ 33.767665076029438, 36.222367786390699 ], [ 33.870180646054308, 36.314060587654637 ], [ 33.871099090565536, 36.314803551068557 ], [ 33.871916445675616, 36.313950635141438 ], [ 33.913492228784648, 36.266022996457032 ], [ 33.916939390855632, 36.26242778035914 ], [ 33.920727146646769, 36.259193369871774 ], [ 33.924817908734482, 36.256351861350595 ], [ 33.929171082841847, 36.253931452227107 ], [ 33.933743470672006, 36.251956161194173 ], [ 33.93848969858216, 36.250445589858884 ], [ 33.943362667844532, 36.24941472822794 ], [ 33.948314022025926, 36.248873805955753 ], [ 33.953294626848091, 36.248828190831517 ], [ 33.958255057766905, 36.24927833551245 ], [ 33.963146090432012, 36.250219773031901 ], [ 33.967919189159808, 36.251643161126857 ], [ 33.972526988572582, 36.253534374944962 ], [ 33.976923763624171, 36.255874647211151 ], [ 33.981065883348002, 36.258640754462789 ], [ 33.984912243824702, 36.261805247505507 ], [ 33.988424676072817, 36.265336723802548 ], [ 33.991568324814963, 36.269200139094764 ], [ 33.994311994360757, 36.273357155158919 ], [ 34.076659542390679, 36.41276464381837 ], [ 34.077372394708341, 36.413839449775011 ], [ 34.07838111619251, 36.414643095989838 ], [ 34.595623308951389, 36.784414514008965 ], [ 34.596547008808685, 36.785014683180286 ], [ 34.597621878097108, 36.785255682087872 ], [ 34.769486477960648, 36.815839713742108 ], [ 34.770753222911672, 36.815997956303043 ], [ 34.771931972150774, 36.815507819882534 ], [ 35.330492012537192, 36.548514698395088 ], [ 35.334860238348725, 36.54667565405817 ], [ 35.339382968561665, 36.545258476498866 ], [ 35.344019564670681, 36.544275899613531 ], [ 35.348728365040664, 36.543736752240974 ], [ 35.353467059252907, 36.543645878831867 ], [ 35.358193068280819, 36.544004095919433 ], [ 35.362863927079133, 36.54480818478261 ], [ 35.569939032688225, 36.590656191887405 ], [ 35.574645407988598, 36.59194201695577 ], [ 35.579204059924052, 36.593680409059331 ], [ 35.583571584084169, 36.595854816400461 ], [ 35.58770639584835, 36.598444535738366 ], [ 35.591569126326554, 36.601424909511422 ], [ 35.595122997203291, 36.604767560609858 ], [ 35.59833417091599, 36.60844066256341 ], [ 35.60117207283345, 36.61240924257158 ], [ 35.603609682366823, 36.616635514491037 ], [ 35.605623790241509, 36.621079238609781 ], [ 35.607195219480168, 36.625698104782579 ], [ 35.608309007993007, 36.630448135279643 ], [ 35.608954551036689, 36.635284103512902 ], [ 35.609125702185551, 36.640159964653115 ], [ 35.608820831853748, 36.645029294037649 ], [ 35.608042842811045, 36.64984572919488 ], [ 35.606799142544602, 36.654563411276328 ], [ 35.605101572729893, 36.659137421693735 ], [ 35.602966296482244, 36.663524209803569 ], [ 35.600413644462542, 36.667682007566889 ], [ 35.597467921302403, 36.671571227236463 ], [ 35.594157174191835, 36.675154838284584 ], [ 35.590512925832819, 36.678398719982823 ], [ 35.586569874301382, 36.68127198627657 ], [ 35.582365562675918, 36.683747279861258 ], [ 35.580861808091264, 36.684445124513068 ], [ 35.579517391593171, 36.685154099947965 ], [ 35.579988678333073, 36.686242811158728 ], [ 35.606190379036605, 36.739350138006948 ], [ 35.606737943721335, 36.740342045757231 ], [ 35.607771827866678, 36.740805501950469 ], [ 36.05743536613334, 36.91798249139331 ], [ 36.058591656163621, 36.918372221099233 ], [ 36.059540552336763, 36.917605088822071 ], [ 36.188105044276156, 36.802523015487175 ], [ 36.188926010140015, 36.801715986415005 ], [ 36.189192190426837, 36.800595973500911 ], [ 36.215926811134885, 36.658998533771651 ], [ 36.216091260848138, 36.65780667213955 ], [ 36.215185080916328, 36.657015207807071 ], [ 35.822972504392446, 36.347285264649038 ], [ 35.819367223888591, 36.344147066114132 ], [ 35.816078072225935, 36.340678951511642 ], [ 35.813135107432146, 36.33691261432832 ], [ 35.810565223894052, 36.332882473368429 ], [ 35.808391906582372, 36.328625358216271 ], [ 35.806635016433482, 36.324180172667766 ], [ 35.805310608849531, 36.319587539206715 ], [ 35.804430786975608, 36.314889427774865 ], [ 35.80400359109472, 36.310128772228062 ], [ 35.80403292515139, 36.305349077983749 ], [ 35.804518521075316, 36.300594024445189 ], [ 35.805455941231131, 36.295907065835657 ], [ 35.806836618971921, 36.291331034090575 ], [ 35.808647936925794, 36.286907747436288 ], [ 35.810873342300184, 36.282677628232818 ], [ 35.976102065329123, 36.00203914472943 ], [ 35.976658634007634, 36.000975677049553 ], [ 35.975783676507596, 36.000153982718871 ], [ 35.826221805926714, 35.873139128018614 ], [ 35.822700366867451, 35.869843365111329 ], [ 35.81951285925004, 35.866223643937253 ], [ 35.816688942942747, 35.862313646126694 ], [ 35.814254894584181, 35.858149754344083 ], [ 35.812233363078228, 35.853770713746009 ], [ 35.810643158845238, 35.849217271456212 ], [ 35.809499078790424, 35.844531797412174 ], [ 35.808811768618149, 35.839757890111422 ], [ 35.808587623773249, 35.834939970925959 ], [ 35.808828729931243, 35.830122870759908 ], [ 35.809532843591008, 35.825351412896396 ], [ 35.810693412950677, 35.820669995915338 ], [ 35.812299638872346, 35.816122180563141 ], [ 35.839868343142591, 35.748624534222635 ], [ 35.840273193603792, 35.747471226777343 ], [ 35.839618374739203, 35.746439124934732 ], [ 35.7499506776172, 35.619643884316162 ], [ 35.747293543373772, 35.615461278961085 ], [ 35.74506346635377, 35.611036201964161 ], [ 35.743282349972212, 35.606412115635031 ], [ 35.741967688033569, 35.60163443691718 ], [ 35.741132392910714, 35.596750091310902 ], [ 35.740784668721993, 35.59180705197943 ], [ 35.740927930751774, 35.586853868565228 ], [ 35.741560771906194, 35.581939190344109 ], [ 35.742676976533367, 35.577111288400801 ], [ 35.744265581472376, 35.572417581519069 ], [ 35.746310983731505, 35.56790417044293 ], [ 35.74879309373798, 35.563615385083452 ], [ 35.751687532654152, 35.559593349118366 ], [ 35.754965871822044, 35.555877566260861 ], [ 35.758595911984536, 35.552504532261239 ], [ 35.918031264184485, 35.418447465980698 ], [ 35.918903499704605, 35.417639028269114 ], [ 35.919190316994836, 35.416484860959613 ], [ 35.96215529752569, 35.199246199597908 ], [ 35.962341019497138, 35.197948491197771 ], [ 35.961975320201134, 35.196689601303021 ], [ 35.872451141738459, 34.940203593429231 ], [ 35.871121713004655, 34.935735304455008 ], [ 35.870214221022998, 34.931162619749209 ], [ 35.869736554798102, 34.926525290550956 ], [ 35.869692866775544, 34.921863630066518 ], [ 35.870083536743799, 34.917218163018816 ], [ 35.870905168532722, 34.912629273358029 ], [ 35.872150619537081, 34.908136853196119 ], [ 35.988406237043534, 34.553859887762151 ], [ 35.988714803684928, 34.552741116173934 ], [ 35.987818911949851, 34.552003389098395 ], [ 35.683399686598847, 34.324913996836649 ], [ 35.679745122864396, 34.321908456303163 ], [ 35.676391032151372, 34.318570914471763 ], [ 35.673367452502113, 34.314931261178913 ], [ 35.670701462019551, 34.311022091863769 ], [ 35.668416936365347, 34.306878415655028 ], [ 35.666534334937957, 34.302537341841656 ], [ 35.665070517645546, 34.298037747535275 ], [ 35.664038593914654, 34.293419929500622 ], [ 35.663447805286857, 34.28872524327204 ], [ 35.640974458992446, 34.000630469005479 ], [ 35.640824453582852, 33.999451453540601 ], [ 35.639822327310213, 33.99881245274058 ], [ 35.487532945596428, 33.911831507460619 ], [ 35.483582907993878, 33.909323286661298 ], [ 35.47988463397315, 33.90645680137311 ], [ 35.476470511492437, 33.903257155091666 ], [ 35.473370440027928, 33.899752368999089 ], [ 35.470611568726611, 33.895973136566113 ], [ 35.468218058645171, 33.891952554751278 ], [ 35.466210871157486, 33.887725834151446 ], [ 35.464607584383515, 33.883329990641933 ], [ 35.349581116802298, 33.515299295384565 ], [ 35.349048867309818, 33.513898728245643 ], [ 35.348352139499106, 33.512572286316555 ], [ 35.104944470335582, 33.110068411341061 ], [ 35.102543492172977, 33.105601030020303 ], [ 35.100607427332605, 33.100913403228823 ], [ 35.099156195747085, 33.096053761381157 ], [ 35.098204728959416, 33.091072104733584 ], [ 35.067232619660828, 32.868034200462631 ], [ 35.067017724509249, 32.866891415696671 ], [ 35.065918141443483, 32.866513190857788 ], [ 34.984273099177926, 32.842734817450406 ], [ 34.979645064319747, 32.841137276817776 ], [ 34.97519546070469, 32.839094761116421 ], [ 34.970966952632125, 32.836626854675387 ], [ 34.967000084462839, 32.833757220613549 ], [ 34.963332891866017, 32.8305133739496 ], [ 34.96000053712045, 32.826926417778814 ], [ 34.957034971966735, 32.823030745046097 ], [ 34.954464631243226, 32.818863708774778 ], [ 34.952314160243212, 32.814465263913291 ], [ 34.950604178407538, 32.809877584233639 ], [ 34.94935108161846, 32.805144657955047 ], [ 34.837926465899628, 32.281971867708855 ], [ 34.837593421731903, 32.280727724845505 ], [ 34.837133707575688, 32.279524615217547 ], [ 34.610061615804597, 31.766505386344786 ], [ 34.609590680803038, 31.765553363012039 ], [ 34.608964873146753, 31.764695171320735 ], [ 34.349167932780986, 31.438613590720369 ], [ 34.348383652644934, 31.43772311078974 ], [ 34.347306989689002, 31.438221956174502 ], [ 34.226829994978111, 31.501436105669168 ], [ 34.225670683600676, 31.502127510966481 ], [ 34.224795207341494, 31.503154927860926 ], [ 33.8905502206647, 31.941768557188766 ], [ 33.889819137752035, 31.942839583734621 ], [ 33.889326016089271, 31.944038921515663 ], [ 33.710987399501569, 32.451621673172667 ], [ 33.710610621942699, 32.452914250729556 ], [ 33.710520929431965, 32.454257632031492 ], [ 33.697732918215344, 33.483374833131727 ], [ 33.697790687319994, 33.484735225316172 ], [ 33.698143232265608, 33.486050412080964 ], [ 33.935667583230554, 34.210645241970958 ], [ 33.936904372685603, 34.215106165705116 ], [ 33.937723294029439, 34.219662354523706 ], [ 33.938117327635773, 34.224274753707988 ], [ 33.938083095929123, 34.228903826715438 ], [ 33.937620892336675, 34.233509894078949 ], [ 33.936734678773099, 34.238053473531075 ], [ 33.756415579623528, 34.978307322775336 ], [ 33.756198993174465, 34.979432204734124 ], [ 33.757344508630801, 34.979440170305523 ], [ 33.971061109662585, 34.970507989170457 ], [ 33.97605419957948, 34.9705488492407 ], [ 33.981018315930541, 34.971087519192295 ], [ 33.985903951352128, 34.972118626844711 ], [ 33.990662381174587, 34.97363188891331 ], [ 33.99524614935563, 34.975612213564979 ], [ 33.99960954176165, 34.978039850929711 ], [ 34.003709042076913, 34.980890590066977 ], [ 34.007503765793793, 34.984136000422566 ], [ 34.010955867955879, 34.987743715367799 ], [ 34.014030920587501, 34.991677754993468 ], [ 34.016698256045501, 34.995898884939109 ], [ 34.018931272869104, 35.000365007679143 ], [ 34.020707701077505, 35.005031582363429 ], [ 34.022009824269418, 35.009852069025229 ], [ 34.022824656309595, 35.014778392726519 ], [ 34.023144070840139, 35.019761423011516 ], [ 34.022964882325063, 35.024751463887064 ], [ 34.022288877819761, 35.029698749443043 ], [ 34.021122799148664, 35.034553940170127 ], [ 34.019478275668689, 35.039268615025023 ], [ 34.017371708289097, 35.043795754335754 ], [ 34.014824105904516, 35.048090208731089 ], [ 34.011860875872195, 35.052109149417284 ], [ 34.008511570623298, 35.055812495311642 ], [ 33.900787867796609, 35.163580202806244 ], [ 33.899977963847014, 35.164474888964236 ], [ 33.900164465888892, 35.165667208014341 ], [ 33.923336507799299, 35.277307082901075 ], [ 33.923650925678913, 35.278511074213142 ], [ 33.924674888470669, 35.279218148384707 ], [ 34.191425282603362, 35.444071189758034 ], [ 34.195447888114579, 35.446837349546215 ], [ 34.199181558935827, 35.449982615396848 ], [ 34.2025907012438, 35.453477002867722 ], [ 34.20564281500976, 35.457287199271093 ], [ 34.208308803828771, 35.461376881250111 ], [ 34.210563252301483, 35.465707061056605 ], [ 34.212384668324148, 35.47023645822896 ], [ 34.213755687977141, 35.474921893126997 ], [ 34.214663241058602, 35.479718698571972 ], [ 34.215098675685283, 35.484581145667676 ], [ 34.215057840772658, 35.489462879743037 ], [ 34.214541125608044, 35.494317362260389 ], [ 34.213553456139422, 35.499098314476562 ], [ 34.212104248015422, 35.503760158627323 ], [ 34.210207316824082, 35.508258452429189 ], [ 34.207880746386095, 35.512550312756566 ], [ 34.205146716358172, 35.516594824455034 ], [ 34.202031290789989, 35.520353430393641 ], [ 34.198564169650432, 35.523790299037657 ], [ 34.194778405691913, 35.526872666037711 ], [ 34.190710089351938, 35.529571146578775 ], [ 34.186398004695832, 35.531860015511491 ], [ 34.181883259680525, 35.533717452595056 ], [ 34.177208894264304, 35.53512575051392 ], [ 34.172419470098347, 35.536071483685141 ], [ 34.167560645711667, 35.536545636247119 ], [ 34.162678741239333, 35.53654368800958 ], [ 34.15782029684344, 35.536065657545464 ], [ 34.153031629036526, 35.535116102013838 ], [ 34.148358389137087, 35.53370407371564 ], [ 33.666098068853174, 35.361879030417654 ], [ 33.664976817926558, 35.361541723674421 ] ] ] ] } }
]
}
